{
"type": "FeatureCollection",
"name": "chigasaki_polygon",
"crs": { "type": "name", "properties": { "name": "urn:ogc:def:crs:EPSG::6668" } },
"features": [
{ "type": "Feature", "properties": { }, "geometry": { "type": "Polygon", "coordinates": [ [ [ 139.430941479266039, 35.383875559009994 ], [ 139.430923696071886, 35.383424171288652 ], [ 139.43092019501114, 35.383333891945711 ], [ 139.430920168930811, 35.383333332567418 ], [ 139.430912866435847, 35.383145278931636 ], [ 139.430926743874352, 35.382960559082676 ], [ 139.430922309317339, 35.382925559267335 ], [ 139.430919804705354, 35.382904721076159 ], [ 139.43073841774401, 35.382507225228437 ], [ 139.430707029605855, 35.382438332663071 ], [ 139.430699247772282, 35.382424171038849 ], [ 139.430658145157395, 35.38234777542965 ], [ 139.430670363346735, 35.382262775107165 ], [ 139.430675913962432, 35.382223053851021 ], [ 139.430729533341491, 35.382144170717083 ], [ 139.430808418274069, 35.382027775061943 ], [ 139.43091313893035, 35.381940837599757 ], [ 139.431129247816671, 35.381766666798399 ], [ 139.431310363182888, 35.381602775248041 ], [ 139.43158924834529, 35.381369440747278 ], [ 139.432016199688064, 35.380976946029421 ], [ 139.43207481210311, 35.380875559159904 ], [ 139.432159247651384, 35.3807297206003 ], [ 139.432228948707234, 35.380538054387841 ], [ 139.432350894977958, 35.380388053765842 ], [ 139.43249172521314, 35.379985558586839 ], [ 139.432504227588197, 35.379856945641677 ], [ 139.432507833869636, 35.379680837700676 ], [ 139.432483384900479, 35.379516946150318 ], [ 139.432403670792951, 35.379333891845818 ], [ 139.432141996855876, 35.378706666879339 ], [ 139.432015616028025, 35.378395837797825 ], [ 139.431980895002425, 35.378310000206511 ], [ 139.431745331082311, 35.377851387331816 ], [ 139.431580051878086, 35.377529440831211 ], [ 139.431482282981165, 35.377358612809871 ], [ 139.43128810586154, 35.377074170736535 ], [ 139.431150336918677, 35.376871945584014 ], [ 139.430983384975434, 35.376632504686484 ], [ 139.430912555270424, 35.376510838104878 ], [ 139.43074255462534, 35.376223612629758 ], [ 139.430611167271763, 35.376035837783832 ], [ 139.430550609623083, 35.375882505173649 ], [ 139.430466135404004, 35.375538054038145 ], [ 139.430403359127922, 35.375311666800144 ], [ 139.430403359127922, 35.375106107860745 ], [ 139.430371699394641, 35.375000558928832 ], [ 139.430371530322077, 35.374999999550482 ], [ 139.430313358574836, 35.374806108415328 ], [ 139.430277808374285, 35.374688054410342 ], [ 139.430242802263706, 35.374548639708109 ], [ 139.430131140639787, 35.374280306291269 ], [ 139.429995305239345, 35.374131134844163 ], [ 139.429908079994107, 35.37406753209109 ], [ 139.429859468040149, 35.374031972897399 ], [ 139.429782244155376, 35.37397586509428 ], [ 139.429220855858034, 35.37364058614429 ], [ 139.429183358625323, 35.373609467802851 ], [ 139.429293916781035, 35.373511694409331 ], [ 139.429475304641755, 35.373435027204891 ], [ 139.429667249644012, 35.373365306363951 ], [ 139.429744475327425, 35.373308080703509 ], [ 139.429764746945693, 35.373229468265492 ], [ 139.429726419638769, 35.373153080750228 ], [ 139.429581141356721, 35.373023640428812 ], [ 139.429495032170166, 35.372946694434575 ], [ 139.429453359385207, 35.372909747586959 ], [ 139.429244188768507, 35.372693639599959 ], [ 139.42920141431398, 35.372623360280045 ], [ 139.429156420332674, 35.372549197687476 ], [ 139.429017522740651, 35.372320865215897 ], [ 139.42884308663929, 35.37198974832836 ], [ 139.428733086962552, 35.37179697325189 ], [ 139.428688366375241, 35.371742252203319 ], [ 139.428572801693576, 35.371601693563491 ], [ 139.428530856414113, 35.371550306301742 ], [ 139.428525577393657, 35.371543919316593 ], [ 139.428398079607859, 35.371360305633743 ], [ 139.428373645027818, 35.371315026567402 ], [ 139.428426419943548, 35.371279747962149 ], [ 139.428447807620387, 35.371210585600238 ], [ 139.42844141434, 35.371151413806842 ], [ 139.428405863240187, 35.370925585947191 ], [ 139.428392528992163, 35.37084141390028 ], [ 139.428430830218872, 35.370686693636173 ], [ 139.42844610880104, 35.370624467745131 ], [ 139.428569727810896, 35.370470305959998 ], [ 139.428676667094692, 35.370433081221904 ], [ 139.428826939311989, 35.370380585995406 ], [ 139.428860557768758, 35.370368919090481 ], [ 139.428993061181018, 35.370334467861596 ], [ 139.429424162894975, 35.370240585834551 ], [ 139.429652218375395, 35.370196135043784 ], [ 139.429928612415665, 35.370126414202844 ], [ 139.42996194578734, 35.37011808108474 ], [ 139.430002801987939, 35.370105585904241 ], [ 139.430218339804696, 35.370040027125697 ], [ 139.430328611976051, 35.370018640348121 ], [ 139.43046389069616, 35.3700328019724 ], [ 139.430567223698631, 35.370075586319444 ], [ 139.430670000020655, 35.37017197295836 ], [ 139.430795005785058, 35.370288918998597 ], [ 139.430899999835333, 35.370419747873257 ], [ 139.430916109391092, 35.370440026686026 ], [ 139.430935005945912, 35.370463640184994 ], [ 139.431019169898946, 35.370583919112732 ], [ 139.431030558014072, 35.370626413878085 ], [ 139.431049999558013, 35.370698080851923 ], [ 139.431055006083852, 35.370717251699944 ], [ 139.431186666831422, 35.370774197671267 ], [ 139.431243333113457, 35.37082474766413 ], [ 139.431254474814295, 35.370834748125276 ], [ 139.431257522616761, 35.37084558585525 ], [ 139.431318911238918, 35.371070865128502 ], [ 139.431349468403369, 35.37118280194494 ], [ 139.431365863044334, 35.371243080803708 ], [ 139.431414474998178, 35.371421413667463 ], [ 139.431452802305216, 35.371560585552743 ], [ 139.431486693256488, 35.371683918578128 ], [ 139.431571970570189, 35.371940026611128 ], [ 139.431660855963855, 35.37249835991156 ], [ 139.431710855571737, 35.372655027207884 ], [ 139.43177836587904, 35.372694198078932 ], [ 139.431821698812541, 35.372689467644989 ], [ 139.431945862811517, 35.372676413985459 ], [ 139.432281140862187, 35.372628080821414 ], [ 139.432323917115241, 35.372649197802389 ], [ 139.432473086763707, 35.37298364038287 ], [ 139.432626135188116, 35.373143639667376 ], [ 139.432812528675413, 35.373430865142495 ], [ 139.432889468374469, 35.37354919793728 ], [ 139.432939467982237, 35.373620306432144 ], [ 139.432985577122849, 35.373627251896323 ], [ 139.433053359025507, 35.373577531977674 ], [ 139.433177808109576, 35.373463640035141 ], [ 139.433333333266887, 35.373340054300229 ], [ 139.4333344754059, 35.373339171165981 ], [ 139.433352244210823, 35.373325026628834 ], [ 139.433395032155204, 35.373147252244053 ], [ 139.43343641985507, 35.372700585963457 ], [ 139.433437523323278, 35.372687802100529 ], [ 139.433445576752092, 35.372601414124119 ], [ 139.433451140857642, 35.372540027300602 ], [ 139.433456693271978, 35.372480306021487 ], [ 139.433463645031338, 35.372404467991942 ], [ 139.43348795100826, 35.372252108448208 ], [ 139.43351335865475, 35.372091973366025 ], [ 139.433614188843876, 35.37177974763739 ], [ 139.43362724969802, 35.371739747591448 ], [ 139.433684189374048, 35.371597532400358 ], [ 139.433802244278354, 35.371502802312648 ], [ 139.433930583829579, 35.371221972815931 ], [ 139.433972776422706, 35.370796694212231 ], [ 139.433985278797763, 35.370650585856026 ], [ 139.433882503375003, 35.370628639700101 ], [ 139.433731115099022, 35.370595864807456 ], [ 139.433546394350742, 35.370556134558115 ], [ 139.433345550556851, 35.37051280162467 ], [ 139.433334449325571, 35.370507973164592 ], [ 139.433333333266887, 35.370507467745597 ], [ 139.432879441832938, 35.370310026986317 ], [ 139.432838340117428, 35.370293919229141 ], [ 139.432762217902223, 35.370264198434199 ], [ 139.432697782376977, 35.370238919390772 ], [ 139.43268639426185, 35.370223081430254 ], [ 139.432658884899752, 35.370185585996182 ], [ 139.432658884899752, 35.370184198342258 ], [ 139.432660271654413, 35.370169197650512 ], [ 139.432676667194642, 35.369975586204532 ], [ 139.432719170053815, 35.369680864880195 ], [ 139.432847497014563, 35.36949586534206 ], [ 139.432888612219813, 35.369418639658647 ], [ 139.432940000380881, 35.369329747969687 ], [ 139.433000558029562, 35.369162531625705 ], [ 139.433007782283539, 35.369139197815912 ], [ 139.433045551111491, 35.369014747832523 ], [ 139.433106393845151, 35.368815864560645 ], [ 139.433140829785657, 35.368647532158036 ], [ 139.433163332621916, 35.368537251892803 ], [ 139.433172503008791, 35.368492802001356 ], [ 139.433191672957491, 35.368398640285193 ], [ 139.433258884689963, 35.368259748089088 ], [ 139.433283061164502, 35.36821753211359 ], [ 139.433333333266887, 35.368130305969032 ], [ 139.433334449325571, 35.368128386815783 ], [ 139.433337497127923, 35.368123080815678 ], [ 139.433411388125251, 35.368039747836235 ], [ 139.433459727584591, 35.367985586166014 ], [ 139.433591114938167, 35.367899747675381 ], [ 139.433840558095426, 35.367897252056707 ], [ 139.43393027176478, 35.367896413888559 ], [ 139.434030271879692, 35.36791641391153 ], [ 139.434186666681512, 35.36800280188794 ], [ 139.434394448745024, 35.368056414072441 ], [ 139.434427497031493, 35.368065026879663 ], [ 139.434500557954607, 35.368083918937884 ], [ 139.43469111530294, 35.368133360066679 ], [ 139.434811387935383, 35.368164197819624 ], [ 139.434881672651272, 35.368182532298192 ], [ 139.435426667207139, 35.368360026993798 ], [ 139.436095278974108, 35.368619198117642 ], [ 139.436341388344545, 35.368715585655934 ], [ 139.436501115134547, 35.368728919004582 ], [ 139.436746109345677, 35.368709748156505 ], [ 139.43695500566912, 35.368693640399329 ], [ 139.437043891062899, 35.368686694035887 ], [ 139.43712333267581, 35.368680585840536 ], [ 139.437139999811279, 35.368679198186612 ], [ 139.437442776363241, 35.36865613507274 ], [ 139.437880272256962, 35.368562252146376 ], [ 139.438083061284374, 35.368598919304873 ], [ 139.438476666664997, 35.368772802323122 ], [ 139.438481945685453, 35.368775027245874 ], [ 139.438586108762138, 35.368842801953917 ], [ 139.438649441718553, 35.368883918957863 ], [ 139.438803891286739, 35.369133360316482 ], [ 139.438828054271426, 35.369172252397675 ], [ 139.438852775735199, 35.369212252443674 ], [ 139.438919169983933, 35.369319467819366 ], [ 139.439075551295787, 35.369558360130384 ], [ 139.439231672703727, 35.36962835976118 ], [ 139.439365006190314, 35.369604468371676 ], [ 139.439564448840429, 35.369514748407084 ], [ 139.439697497241923, 35.369391972961353 ], [ 139.440026938692426, 35.369212252443674 ], [ 139.440226667327011, 35.36913586492841 ], [ 139.440440830080433, 35.369091693826761 ], [ 139.440533891026462, 35.369088360039939 ], [ 139.440690272338429, 35.369071972593645 ], [ 139.440874163012381, 35.368953360109629 ], [ 139.441091114563505, 35.368813081158919 ], [ 139.441212775749136, 35.368734467821582 ], [ 139.441265550664866, 35.368654467729641 ], [ 139.441288885373979, 35.368618919327844 ], [ 139.441395278769278, 35.368458080975813 ], [ 139.441427223587652, 35.368303359812387 ], [ 139.441436667368521, 35.368258080745989 ], [ 139.441439170181752, 35.368245892234313 ], [ 139.441426666907319, 35.368120891865829 ], [ 139.441335278700308, 35.367997279151268 ], [ 139.441264720590539, 35.367901999577782 ], [ 139.441010557791174, 35.367640332835265 ], [ 139.440987497375318, 35.367616441445762 ], [ 139.440964448650561, 35.367591441192246 ], [ 139.440936939288463, 35.367561721296568 ], [ 139.440900829709676, 35.367489225147779 ], [ 139.440861673227801, 35.36738450539076 ], [ 139.440783890864054, 35.367175612664539 ], [ 139.440682503095218, 35.366840054025431 ], [ 139.440608975424084, 35.366667278971931 ], [ 139.440608690338991, 35.366666667432924 ], [ 139.440318586134026, 35.365985332956939 ], [ 139.440279973742008, 35.365895053613997 ], [ 139.440243306583511, 35.365808946226025 ], [ 139.44022858558094, 35.365774225200482 ], [ 139.440060531968129, 35.365311999749167 ], [ 139.439961920406517, 35.365175333375078 ], [ 139.439960245868861, 35.365173107553062 ], [ 139.439853306585064, 35.365105054055164 ], [ 139.439775811104937, 35.365056720891118 ], [ 139.439724422943982, 35.365030892361972 ], [ 139.439691633662164, 35.365014504915621 ], [ 139.439658858769462, 35.364997558990297 ], [ 139.439597756131775, 35.364966170852256 ], [ 139.439423865019535, 35.36485005398697 ], [ 139.439318300799073, 35.364779774667056 ], [ 139.439153306679941, 35.364640892363468 ], [ 139.439086913330584, 35.364605333169777 ], [ 139.438881920064773, 35.364495332593663 ], [ 139.438704422671094, 35.364371171292703 ], [ 139.438610245666496, 35.36430533282504 ], [ 139.438406354969516, 35.36416255915492 ], [ 139.438257756390499, 35.364027278636172 ], [ 139.438185810626806, 35.363988945933272 ], [ 139.437954423158317, 35.36386617138686 ], [ 139.437842192263588, 35.363848107604269 ], [ 139.437653306754896, 35.36384033296514 ], [ 139.437472192288055, 35.36382533317277 ], [ 139.437309689290942, 35.363811999824122 ], [ 139.436841361939514, 35.363708387132533 ], [ 139.436689143589319, 35.363621170880492 ], [ 139.436592192176136, 35.363501721127705 ], [ 139.436590532027594, 35.363498945819856 ], [ 139.436514694897483, 35.363375612794471 ], [ 139.436491919566606, 35.363133107906776 ], [ 139.436476912579678, 35.362869225234704 ], [ 139.43647581091011, 35.362848946421877 ], [ 139.436479143797669, 35.362587559368535 ], [ 139.436498586240987, 35.362254505341298 ], [ 139.436495253353428, 35.361940891958739 ], [ 139.436491919566606, 35.361772838345985 ], [ 139.436474423256186, 35.361602279221984 ], [ 139.436474423256186, 35.361481171119294 ], [ 139.436508300717719, 35.361339775210638 ], [ 139.436524422863954, 35.361239505299068 ], [ 139.436526083012495, 35.361215891800157 ], [ 139.436537172552676, 35.361061999811625 ], [ 139.436530505878295, 35.360952278924685 ], [ 139.436501336367769, 35.36090394576064 ], [ 139.436245772424627, 35.360793946083902 ], [ 139.436181050914911, 35.360726171375859 ], [ 139.436084112092317, 35.360583946292252 ], [ 139.435999948139283, 35.360363946039456 ], [ 139.435789104783566, 35.359954775192875 ], [ 139.435750505881288, 35.359722000070406 ], [ 139.435711608404176, 35.359560333442801 ], [ 139.435705226814889, 35.359372838286049 ], [ 139.435698560140622, 35.359224225317917 ], [ 139.435731050847494, 35.358962558575399 ], [ 139.435763280750962, 35.358820332592416 ], [ 139.43578411174758, 35.358682559152953 ], [ 139.43587494237488, 35.358477838381702 ], [ 139.435934086289194, 35.358333945954996 ], [ 139.435934331804106, 35.358333332617349 ], [ 139.435954383987792, 35.358284504826202 ], [ 139.43609022028761, 35.357916171294448 ], [ 139.436232724161073, 35.357719225162271 ], [ 139.436407445347527, 35.357615892159856 ], [ 139.436516614950051, 35.357542558742239 ], [ 139.436572723652489, 35.35744561272503 ], [ 139.436598832770073, 35.357125332668147 ], [ 139.436632437736989, 35.356822558814201 ], [ 139.436676056654846, 35.356688945638496 ], [ 139.436769947675089, 35.356495053604021 ], [ 139.436867173381529, 35.356272000152842 ], [ 139.436925746226393, 35.356013386608652 ], [ 139.437006588983081, 35.355538135376833 ], [ 139.437122970249106, 35.354882305674039 ], [ 139.437224086422589, 35.354523693813576 ], [ 139.43728547324622, 35.354171468038999 ], [ 139.437330752312505, 35.35407813459841 ], [ 139.437612140288252, 35.353793413735218 ], [ 139.437931024597333, 35.353566747707418 ], [ 139.438282969783359, 35.353372027397313 ], [ 139.4383924118805, 35.353377586106888 ], [ 139.43852547287247, 35.353325359777671 ], [ 139.438612412133239, 35.353273693726123 ], [ 139.438649079291736, 35.353256747800856 ], [ 139.438792412340149, 35.353190359847417 ], [ 139.438957782375951, 35.353103613041469 ], [ 139.439445746424212, 35.352847585947472 ], [ 139.439646304233747, 35.352708693751367 ], [ 139.439840466964142, 35.352592306190161 ], [ 139.439966588787229, 35.352357585834056 ], [ 139.440183256152523, 35.351808135137503 ], [ 139.440279078916546, 35.351607586321222 ], [ 139.440357977338977, 35.351452865157739 ], [ 139.440565162252597, 35.351139532363675 ], [ 139.440652386598572, 35.351013414137924 ], [ 139.440769338934047, 35.350816747694921 ], [ 139.440870169123173, 35.350547864792304 ], [ 139.441042437858414, 35.350000639917766 ], [ 139.441042671682112, 35.34999999960047 ], [ 139.441048223197072, 35.349982306338518 ], [ 139.441099882953381, 35.349875640448602 ], [ 139.441132387150105, 35.349788414304044 ], [ 139.441142671797024, 35.349585359976572 ], [ 139.441323773673389, 35.349200918687586 ], [ 139.44146294376003, 35.34907508105033 ], [ 139.441553501892827, 35.349003972555465 ], [ 139.441666667183085, 35.34894644112552 ], [ 139.4416676654306, 35.348945918619393 ], [ 139.441731555966726, 35.348913414422725 ], [ 139.44174627786856, 35.348899802284222 ], [ 139.441773502145566, 35.348874532234049 ], [ 139.441818781211964, 35.348774532119137 ], [ 139.441877081562211, 35.348671108285203 ], [ 139.441935446663706, 35.348567586425133 ], [ 139.441967664875961, 35.348499532027972 ], [ 139.442126834985629, 35.348348441427618 ], [ 139.442175446939473, 35.3482678918499 ], [ 139.442311284138668, 35.347964000138688 ], [ 139.442424616702851, 35.347647053868627 ], [ 139.442495719801855, 35.347501774687316 ], [ 139.442515719824769, 35.347468721004816 ], [ 139.442540726373636, 35.347427891783923 ], [ 139.442561828965381, 35.34739317075838 ], [ 139.44259600500186, 35.347336775172209 ], [ 139.442612387052236, 35.347294837986567 ], [ 139.442601284022203, 35.346927053940533 ], [ 139.442599882878426, 35.346878999566343 ], [ 139.442603216665248, 35.346816225088901 ], [ 139.442616278418654, 35.346558440719605 ], [ 139.442621245374312, 35.346466774622115 ], [ 139.442622361432996, 35.346442613436011 ], [ 139.442739300278618, 35.346023999707995 ], [ 139.442748469766229, 35.345991505403845 ], [ 139.442748469766229, 35.345942891651305 ], [ 139.442732087715854, 35.34587733287276 ], [ 139.442674033779781, 35.345645666614416 ], [ 139.442612632567148, 35.345387053969546 ], [ 139.442614033710811, 35.345370108044222 ], [ 139.442617082412653, 35.345327613278869 ], [ 139.442623190607947, 35.34524622463374 ], [ 139.4426481971567, 35.344910108414922 ], [ 139.442660700431134, 35.344834837857661 ], [ 139.442670699992959, 35.344774558998893 ], [ 139.442689857351183, 35.344748720577172 ], [ 139.442800973086605, 35.344599279333465 ], [ 139.44283902699965, 35.344548170861572 ], [ 139.442899857142834, 35.344465387367904 ], [ 139.443005422262559, 35.344320666665624 ], [ 139.44300680901722, 35.344319000221844 ], [ 139.443007366596817, 35.344220666550711 ], [ 139.44296513623226, 35.344033171393903 ], [ 139.44296513623226, 35.344032333225755 ], [ 139.442945693788943, 35.343903999969768 ], [ 139.442983191021654, 35.343772054137162 ], [ 139.443013748186104, 35.34366483786215 ], [ 139.443127366734757, 35.343391225424853 ], [ 139.443193190813304, 35.343294279407644 ], [ 139.443195422031295, 35.343290945620822 ], [ 139.443263191343362, 35.343223170912779 ], [ 139.44340180295103, 35.342960666901433 ], [ 139.443435966396919, 35.342895666601919 ], [ 139.443476524022572, 35.342819279086598 ], [ 139.443544864404203, 35.342689559076064 ], [ 139.443654034006613, 35.342430946431193 ], [ 139.443674305624882, 35.342383170846801 ], [ 139.443810972898291, 35.342069838052737 ], [ 139.443826523975076, 35.342034278859046 ], [ 139.44388124502359, 35.341868999654764 ], [ 139.443922361128216, 35.341745386940204 ], [ 139.443932360690042, 35.341714559079776 ], [ 139.443948028678733, 35.341667332981217 ], [ 139.443948249012692, 35.341666666583535 ], [ 139.443965694061717, 35.341613999586571 ], [ 139.444107328290784, 35.340970945652771 ], [ 139.444145668188185, 35.3405292787034 ], [ 139.444128444372382, 35.340323440974203 ], [ 139.444072607265184, 35.339648999801682 ], [ 139.444061219150171, 35.339275414229121 ], [ 139.444058443842323, 35.339182359578388 ], [ 139.444037612845705, 35.338985694034704 ], [ 139.444014838414205, 35.338772640145407 ], [ 139.443972892235365, 35.33854319791044 ], [ 139.443913449746105, 35.338385413656056 ], [ 139.443859558771805, 35.338242918775848 ], [ 139.443775109733679, 35.338018748366721 ], [ 139.443709559049125, 35.337642359607401 ], [ 139.443623722357074, 35.337261801591012 ], [ 139.443602607174739, 35.337168747839598 ], [ 139.443583722311132, 35.337084585685261 ], [ 139.443540389377631, 35.336893198262658 ], [ 139.443555110380203, 35.336810973247964 ], [ 139.443572049110912, 35.336717081328402 ], [ 139.443591219059726, 35.336611251807994 ], [ 139.443703449954455, 35.336333468315104 ], [ 139.443745940223153, 35.336228747658765 ], [ 139.443765914165738, 35.335999306323117 ], [ 139.443804526557869, 35.335553197622119 ], [ 139.443813969439361, 35.335382359708319 ], [ 139.443801751250021, 35.335278468226875 ], [ 139.443795913750591, 35.335230694441179 ], [ 139.443788690395877, 35.335168467650817 ], [ 139.44377647220665, 35.335109305750052 ], [ 139.443676743686979, 35.334825135271956 ], [ 139.443553410661593, 35.334630414062531 ], [ 139.443532022984641, 35.334596801901057 ], [ 139.443443968564452, 35.334486251839223 ], [ 139.443321479103133, 35.334332081060836 ], [ 139.443295914075406, 35.334299864647221 ], [ 139.443143969119092, 35.334229865016425 ], [ 139.443071193281071, 35.334189586180628 ], [ 139.442975357027308, 35.334139305984365 ], [ 139.442934811992131, 35.334105135343862 ], [ 139.442856472048675, 35.334039305869453 ], [ 139.442803411148702, 35.333994586181348 ], [ 139.442726743944263, 35.333930135367609 ], [ 139.442686199808463, 35.33389597282104 ], [ 139.442592866367818, 35.333757918793083 ], [ 139.442545642067898, 35.333688467748743 ], [ 139.442472581144898, 35.333553748406928 ], [ 139.442439805352933, 35.33339986541165 ], [ 139.442425914424575, 35.33333402694393 ], [ 139.442425772331717, 35.333333332667337 ], [ 139.442419247750308, 35.333302360016091 ], [ 139.442432022619982, 35.333162640443675 ], [ 139.442472581144898, 35.332982359648327 ], [ 139.442533411288082, 35.332855973424614 ], [ 139.442747029951647, 35.33241125237754 ], [ 139.442879804959261, 35.332325693576081 ], [ 139.443019248439782, 35.332225134982139 ], [ 139.443265641995936, 35.3321131981657 ], [ 139.443436471815858, 35.331997918569243 ], [ 139.443500920830957, 35.331914865278975 ], [ 139.443505913867057, 35.331853467663564 ], [ 139.443505642271703, 35.331790414396266 ], [ 139.443454811690344, 35.331675413589608 ], [ 139.443430077636208, 35.331619026996691 ], [ 139.443390362675245, 35.331528198167973 ], [ 139.443268974883495, 35.33139097331491 ], [ 139.443079532694469, 35.33117125185197 ], [ 139.443018144971575, 35.33109041359188 ], [ 139.442938689868811, 35.330985972624717 ], [ 139.442820363369265, 35.330830135402607 ], [ 139.44281814474175, 35.330826801615785 ], [ 139.442760635794912, 35.330742640360711 ], [ 139.442713410595616, 35.330673747795402 ], [ 139.44269147882892, 35.330641532281049 ], [ 139.442644812108597, 35.330591531773962 ], [ 139.442555057969685, 35.330495135242472 ], [ 139.442489779779635, 35.330424864915756 ], [ 139.44245616132298, 35.330388748142354 ], [ 139.442444773207853, 35.330370134873988 ], [ 139.442395057785916, 35.330287360373575 ], [ 139.442267275814288, 35.330074864963194 ], [ 139.442207561729788, 35.329968198173958 ], [ 139.442150610362546, 35.329867081101099 ], [ 139.442148949314742, 35.329862919038646 ], [ 139.442099779781188, 35.329745413620117 ], [ 139.442071725429969, 35.329658747753172 ], [ 139.442065331250205, 35.329560135292184 ], [ 139.442028664091708, 35.329091252159742 ], [ 139.442008105589821, 35.328794865290945 ], [ 139.441984772679348, 35.32874236017193 ], [ 139.441906446225744, 35.328566801716704 ], [ 139.441738949293267, 35.328217360243173 ], [ 139.441667562008547, 35.327991613322467 ], [ 139.441666667183085, 35.327988802041773 ], [ 139.441612283380323, 35.327816802203813 ], [ 139.441547834365224, 35.327600694216812 ], [ 139.441520051609245, 35.32750738685661 ], [ 139.441508948579326, 35.327482386603037 ], [ 139.441453670850365, 35.327357387133873 ], [ 139.441398392222254, 35.327232946143738 ], [ 139.441307004015243, 35.327007945660341 ], [ 139.441256445928389, 35.326858224727459 ], [ 139.441132282828789, 35.326492108024524 ], [ 139.441092555277351, 35.326374613397832 ], [ 139.441089493985146, 35.326365720901492 ], [ 139.44105561562435, 35.326285441120376 ], [ 139.44101978033882, 35.326201000176184 ], [ 139.440991166609251, 35.326133224568821 ], [ 139.44096505839093, 35.326072108441224 ], [ 139.44090005179612, 35.325919333410695 ], [ 139.440869222137053, 35.325846278782933 ], [ 139.440809779647793, 35.325706559210516 ], [ 139.440804773121954, 35.325695171095447 ], [ 139.440770894761158, 35.32561655865743 ], [ 139.440701725204576, 35.325457386749179 ], [ 139.440662555232961, 35.325367108305556 ], [ 139.440637276189477, 35.325309054369541 ], [ 139.440588949320727, 35.325197667038879 ], [ 139.440572827174378, 35.325160170705487 ], [ 139.440495668040853, 35.325000720906701 ], [ 139.440495304714773, 35.324999999650402 ], [ 139.440366135089221, 35.324733224758688 ], [ 139.440191413902767, 35.324372666765328 ], [ 139.440144747182558, 35.324264613221487 ], [ 139.439774474712408, 35.323409053984847 ], [ 139.439570026435717, 35.322919892039579 ], [ 139.439448080164993, 35.322618225251063 ], [ 139.439364188706577, 35.32244266679578 ], [ 139.438780025977621, 35.320998774673853 ], [ 139.438707807719311, 35.320788225396427 ], [ 139.438676135395554, 35.320711559091365 ], [ 139.438559754129528, 35.320430720601451 ], [ 139.438513916584157, 35.320319891749762 ], [ 139.438306135420021, 35.319818775116516 ], [ 139.438239753761763, 35.319658225446915 ], [ 139.438044838298879, 35.319145549827454 ], [ 139.438038715714356, 35.319145919448772 ], [ 139.438031699203748, 35.319146333136928 ], [ 139.437998612246361, 35.319143171120629 ], [ 139.437997808252476, 35.319142982262974 ], [ 139.437984111577634, 35.319139892192425 ], [ 139.437953333179962, 35.319130864797728 ], [ 139.437917107588646, 35.319108531933352 ], [ 139.437843332603848, 35.319090558982282 ], [ 139.437780116559338, 35.31909036023211 ], [ 139.437713891383169, 35.319075505230558 ], [ 139.437637393251293, 35.319079532394653 ], [ 139.437581414051238, 35.31908086518996 ], [ 139.437504941999691, 35.319066919402985 ], [ 139.437490855918441, 35.319065252059886 ], [ 139.437466692933754, 35.31906138677374 ], [ 139.43745691280651, 35.31905838663539 ], [ 139.437450558196929, 35.319056468381461 ], [ 139.437431971008778, 35.31905117137461 ], [ 139.437410998818677, 35.31904794640576 ], [ 139.437397249983292, 35.319045386935215 ], [ 139.437377172618653, 35.319037838025963 ], [ 139.437368495060127, 35.319035721021862 ], [ 139.437352218230444, 35.319033693949962 ], [ 139.437288197292673, 35.319037640175111 ], [ 139.437269494092106, 35.319038386612419 ], [ 139.437243306733421, 35.319041721298561 ], [ 139.437219493584962, 35.319049306180716 ], [ 139.437199559212445, 35.319055468335364 ], [ 139.437172048951084, 35.319060413707291 ], [ 139.437152724318935, 35.319055224619092 ], [ 139.437133942877381, 35.319048468012568 ], [ 139.437108144925105, 35.319039026929715 ], [ 139.437081997136602, 35.319032801822516 ], [ 139.437068249200479, 35.319030693811612 ], [ 139.43704350165649, 35.319031693857767 ], [ 139.437019273920555, 35.319036387419487 ], [ 139.436987665448555, 35.319049801707138 ], [ 139.436972724112138, 35.319051720860386 ], [ 139.436945330762569, 35.319049027390861 ], [ 139.436918521073039, 35.31904291919551 ], [ 139.436895719661948, 35.319047081257963 ], [ 139.436828948597281, 35.319075613149209 ], [ 139.436801828641705, 35.319088774727334 ], [ 139.436762503087266, 35.319099802214282 ], [ 139.436738106278767, 35.319097224757286 ], [ 139.436724033687369, 35.319093468289111 ], [ 139.436683411310582, 35.319100467712587 ], [ 139.436650389104329, 35.31910944114793 ], [ 139.436608807150947, 35.319112026698861 ], [ 139.436587250401431, 35.319111505092053 ], [ 139.436564838396748, 35.319106639759809 ], [ 139.436472632706, 35.319087414053058 ], [ 139.436436445785489, 35.319093251552488 ], [ 139.436414449267545, 35.319092279385359 ], [ 139.436402723906781, 35.319081054047558 ], [ 139.436368832955509, 35.319091171420609 ], [ 139.436324112368084, 35.319087837633788 ], [ 139.436287003642519, 35.319077224734315 ], [ 139.436264838052011, 35.319076107776311 ], [ 139.436243139209637, 35.319081359817062 ], [ 139.436234837567895, 35.319092945782984 ], [ 139.436219078747627, 35.319101640428528 ], [ 139.436195422081255, 35.319102919264481 ], [ 139.436160726236722, 35.319092170567387 ], [ 139.436142632776409, 35.319079946082809 ], [ 139.436113942604493, 35.319077865051611 ], [ 139.436085227251624, 35.319080559420456 ], [ 139.436065058156032, 35.319086081257808 ], [ 139.436030609625163, 35.319093279431456 ], [ 139.436009611354621, 35.319092747932132 ], [ 139.435994112438493, 35.319087468012413 ], [ 139.43596158216144, 35.319082224964859 ], [ 139.435928145367825, 35.319088252221206 ], [ 139.435901803325692, 35.319093559120631 ], [ 139.43586791237442, 35.319099775234633 ], [ 139.435844669396147, 35.319104838417729 ], [ 139.435827860167819, 35.319105585754357 ], [ 139.435786161302531, 35.319103720560406 ], [ 139.435766083038516, 35.319099170890183 ], [ 139.435731673178338, 35.31909453218708 ], [ 139.435701193355612, 35.319095694111184 ], [ 139.43568413681362, 35.319096359609489 ], [ 139.435658638335667, 35.319097721183027 ], [ 139.435612555275384, 35.319094053747733 ], [ 139.435581336209907, 35.319091252359556 ], [ 139.435542723817775, 35.319093279431456 ], [ 139.435518949340235, 35.319099251829186 ], [ 139.435494694624595, 35.319108999580806 ], [ 139.435455357379055, 35.319126360093605 ], [ 139.435431504660414, 35.319122504699976 ], [ 139.435409973991341, 35.319119170913154 ], [ 139.435383358555328, 35.319113774980906 ], [ 139.435341894413114, 35.319114891938852 ], [ 139.43530408601498, 35.319126054324101 ], [ 139.435256446228209, 35.31911730571926 ], [ 139.435210415328584, 35.319106693719107 ], [ 139.435183021979014, 35.319105081234682 ], [ 139.435130610389592, 35.319098332722035 ], [ 139.43509522656359, 35.319089558936184 ], [ 139.435054773259367, 35.319086440986609 ], [ 139.435030584194237, 35.319087081303906 ], [ 139.4350030613424, 35.319092387304011 ], [ 139.434984422892967, 35.319102802352631 ], [ 139.434960414591615, 35.319104802444826 ], [ 139.434932969980764, 35.319098386681389 ], [ 139.434909857404136, 35.319100386773584 ], [ 139.434895304574866, 35.319105027275327 ], [ 139.43486978001647, 35.319109108398777 ], [ 139.434849104602677, 35.319108135332328 ], [ 139.434790778172101, 35.319091891777532 ], [ 139.434764967629349, 35.319083693557786 ], [ 139.434744305705294, 35.319082639552335 ], [ 139.434733864576401, 35.319081332837413 ], [ 139.434730362616278, 35.319080613379754 ], [ 139.434722775935484, 35.319076332606812 ], [ 139.43471367119912, 35.319071639944411 ], [ 139.434702477337623, 35.319069333183336 ], [ 139.434685227441491, 35.319066387004341 ], [ 139.434662891879157, 35.31906569362701 ], [ 139.434644383831483, 35.319071306295939 ], [ 139.434624864046441, 35.319083946267256 ], [ 139.434603476369489, 35.319092080635187 ], [ 139.434580388973927, 35.31909453218708 ], [ 139.434554746604476, 35.319096802075933 ], [ 139.434545837020892, 35.319096053839985 ], [ 139.434533528000088, 35.319095107753185 ], [ 139.434513644888966, 35.319092864843981 ], [ 139.434508144635402, 35.319091864797883 ], [ 139.434495135941916, 35.319089252267361 ], [ 139.434485720040129, 35.319086027298511 ], [ 139.434463502288963, 35.319090198354161 ], [ 139.434441361879522, 35.319097053886082 ], [ 139.434405772108903, 35.319104865397378 ], [ 139.434379415677654, 35.319099721275279 ], [ 139.434363359181816, 35.319099053978334 ], [ 139.434332335269232, 35.319103198054336 ], [ 139.43429111484329, 35.319098440640687 ], [ 139.434266589431786, 35.319096197731483 ], [ 139.434252477270206, 35.319104000249581 ], [ 139.434231556341388, 35.319106558820806 ], [ 139.434211440305944, 35.319107837656759 ], [ 139.434186329435761, 35.31910999962696 ], [ 139.434160583644143, 35.319113532163954 ], [ 139.434029363564491, 35.319138332768034 ], [ 139.433914227859532, 35.319159504607626 ], [ 139.433676589203401, 35.319196197846395 ], [ 139.433574812028155, 35.319207306272347 ], [ 139.433439339054416, 35.319204801660419 ], [ 139.43333418942143, 35.319206333205898 ], [ 139.433333333266887, 35.319206333205898 ], [ 139.433296783020296, 35.319206864705222 ], [ 139.433179804604492, 35.319216748254519 ], [ 139.432957717025147, 35.319248441262744 ], [ 139.432799857227792, 35.319255775234012 ], [ 139.43267830126274, 35.319260774565237 ], [ 139.432486472273013, 35.319242837587069 ], [ 139.432391504764269, 35.319230080703846 ], [ 139.432305863225224, 35.319247026629114 ], [ 139.432233138648598, 35.319250107706466 ], [ 139.432175421958391, 35.31926786482029 ], [ 139.432123281064719, 35.319269586122687 ], [ 139.432048053674862, 35.319249945828517 ], [ 139.431947470799287, 35.319239531679216 ], [ 139.431861439853719, 35.319239413868047 ], [ 139.431767108165673, 35.319233251713342 ], [ 139.431665383151085, 35.319233170774396 ], [ 139.431575005782065, 35.319231053770295 ], [ 139.431496977903407, 35.319238108052389 ], [ 139.431416446312141, 35.319242531817565 ], [ 139.431343773896174, 35.319238224964295 ], [ 139.431163606415453, 35.319216721274813 ], [ 139.431075421593619, 35.319218224941267 ], [ 139.430963891270721, 35.319220278992873 ], [ 139.430877444838416, 35.319216667315516 ], [ 139.430801088799399, 35.319224252197671 ], [ 139.430703995293356, 35.319216892146017 ], [ 139.430625227272571, 35.319201054185442 ], [ 139.430527639139427, 35.319185666785245 ], [ 139.430455499122218, 35.31918272060625 ], [ 139.430366445555251, 35.319179892238424 ], [ 139.4302565241195, 35.319166918618578 ], [ 139.430175005971932, 35.319169171420299 ], [ 139.430078170571278, 35.319161359909003 ], [ 139.429967950560695, 35.319138467666335 ], [ 139.429801309782761, 35.319141865305028 ], [ 139.429702632570638, 35.319125225149207 ], [ 139.42961286584125, 35.319111505092053 ], [ 139.429530660611704, 35.319096694157281 ], [ 139.429428054261507, 35.319073999765465 ], [ 139.429351361876002, 35.319054837910585 ], [ 139.429383994675845, 35.318954333276054 ], [ 139.429352139789557, 35.318947467851501 ], [ 139.429334694740533, 35.319000946037022 ], [ 139.429318495252573, 35.319051026583793 ], [ 139.429229921923479, 35.319061721321532 ], [ 139.42925527920795, 35.318983640382839 ], [ 139.42927258126474, 35.31893017119063 ], [ 139.429240610366037, 35.318923197847482 ], [ 139.42922330740987, 35.318976694019398 ], [ 139.429193190913224, 35.319073053678665 ], [ 139.429188053985627, 35.319086585777484 ], [ 139.429128392061784, 35.319087171236106 ], [ 139.429076161236026, 35.31908400022661 ], [ 139.429059363698798, 35.319080000042106 ], [ 139.429010803905612, 35.319066946382634 ], [ 139.428919779924058, 35.319060224849636 ], [ 139.428849247894618, 35.319067306111435 ], [ 139.428795161767425, 35.319059640290334 ], [ 139.428660946945342, 35.319025108122389 ], [ 139.428550505701423, 35.319008892446618 ], [ 139.428450921073363, 35.318994107592175 ], [ 139.428340336837209, 35.31898472136794 ], [ 139.428236523596865, 35.318955918780773 ], [ 139.428152633037712, 35.318953639898723 ], [ 139.428069221817282, 35.318965667431769 ], [ 139.427968975288195, 35.318976694019398 ], [ 139.427893916970902, 35.318982386727953 ], [ 139.42779888471091, 35.318961170821524 ], [ 139.427709857224272, 35.318950225172898 ], [ 139.427596913167235, 35.31892922510383 ], [ 139.4274934110922, 35.31892850474685 ], [ 139.427405356672011, 35.318923532395274 ], [ 139.427323645170304, 35.318903332722812 ], [ 139.427225810622872, 35.318892000365679 ], [ 139.427117197700682, 35.318882721160833 ], [ 139.427052387158142, 35.318864359702616 ], [ 139.426958884644932, 35.318865053979209 ], [ 139.426861854990761, 35.318849748417335 ], [ 139.426686160737859, 35.318836639899189 ], [ 139.426589052842701, 35.318817837773167 ], [ 139.426517522565746, 35.318799559052593 ], [ 139.426448638094371, 35.318787613357813 ], [ 139.426370336821719, 35.318787613357813 ], [ 139.426301089024264, 35.318782170660825 ], [ 139.426242633091192, 35.318766919058248 ], [ 139.426160441351499, 35.318753198101774 ], [ 139.426078248712429, 35.318735973386651 ], [ 139.426020051784121, 35.318719279271477 ], [ 139.425947004350974, 35.318704251600082 ], [ 139.425887885617612, 35.318689559375855 ], [ 139.425804254063223, 35.318680441149581 ], [ 139.425731698559275, 35.318673413847137 ], [ 139.42566758768919, 35.31867058637863 ], [ 139.425601971354126, 35.318681360256733 ], [ 139.425523722242133, 35.31867444087294 ], [ 139.425456134593105, 35.318660504978482 ], [ 139.42537783421983, 35.318642505047762 ], [ 139.425288470386818, 35.318631559399137 ], [ 139.425198029165927, 35.318613305859571 ], [ 139.42503053223345, 35.318591278764643 ], [ 139.425000856404608, 35.318579837589596 ], [ 139.425000000249952, 35.318579504840443 ], [ 139.424961725103685, 35.31856472088532 ], [ 139.424880830186339, 35.318551467576356 ], [ 139.424792801846479, 35.318535946177121 ], [ 139.424631920326988, 35.318511892010349 ], [ 139.424566446084782, 35.318500838443128 ], [ 139.424484383847471, 35.318480802447255 ], [ 139.424410337267432, 35.318466225336181 ], [ 139.424332243738263, 35.318464000413428 ], [ 139.424248884678491, 35.318461558754109 ], [ 139.424175473019886, 35.318452838028236 ], [ 139.424085422104781, 35.318448999721738 ], [ 139.424013943089221, 35.318443081283363 ], [ 139.423958612300339, 35.318424774683763 ], [ 139.423892581377686, 35.318410026701542 ], [ 139.423804616889697, 35.318389999698866 ], [ 139.423730973206034, 35.318380838305188 ], [ 139.423654838400239, 35.31836335998122 ], [ 139.423558392406107, 35.318361666557848 ], [ 139.423475304941576, 35.318358946108617 ], [ 139.423368585991625, 35.3183351707317 ], [ 139.423248716255443, 35.318308414102205 ], [ 139.423141776971647, 35.318296891988155 ], [ 139.422967976690984, 35.318257721117106 ], [ 139.422877664972475, 35.318242359797239 ], [ 139.422688391856013, 35.318197441359018 ], [ 139.422548755021239, 35.31816605412024 ], [ 139.422627834207333, 35.31803650498091 ], [ 139.422612437813882, 35.318029694415031 ], [ 139.42251949377976, 35.318166224991444 ], [ 139.422476719325346, 35.318144278835575 ], [ 139.422455965670451, 35.318137441290048 ], [ 139.422545810640827, 35.318008386777819 ], [ 139.422523865384278, 35.317998135405787 ], [ 139.422436251631893, 35.318123946063452 ], [ 139.422403942588062, 35.318119694068798 ], [ 139.422353553573771, 35.318101134759729 ], [ 139.422303190639923, 35.318120891965748 ], [ 139.422236497816243, 35.318104251809928 ], [ 139.422171309558507, 35.318079134644506 ], [ 139.422103476394454, 35.318073333117979 ], [ 139.42205114124738, 35.318072414010885 ], [ 139.421978520992184, 35.318052252109908 ], [ 139.421895939845967, 35.318029892265884 ], [ 139.42181469509228, 35.31802564027123 ], [ 139.421729948378584, 35.31801644110601 ], [ 139.421641244647844, 35.318004775100462 ], [ 139.421597523207311, 35.317996054374589 ], [ 139.421506004598655, 35.317977441106166 ], [ 139.421395136176784, 35.317955973389644 ], [ 139.421278054338927, 35.317926468431949 ], [ 139.421200584039866, 35.31791350470462 ], [ 139.42110839183897, 35.317898945580055 ], [ 139.421002438212099, 35.317881801803878 ], [ 139.420910972663478, 35.317856359983182 ], [ 139.420847470634385, 35.317842171379255 ], [ 139.420763164588607, 35.317830694231304 ], [ 139.420615279172011, 35.317800973436363 ], [ 139.420531803200333, 35.317781414081139 ], [ 139.420458003034582, 35.317763225292765 ], [ 139.420382412318645, 35.317746107596975 ], [ 139.420286719057003, 35.317723612854593 ], [ 139.420196912757547, 35.31771346760263 ], [ 139.420107327691198, 35.317705864734023 ], [ 139.42001858618903, 35.317685108381227 ], [ 139.41993610936413, 35.317660919316154 ], [ 139.419859688573979, 35.317652721096351 ], [ 139.419676056904677, 35.317608666906608 ], [ 139.419582334956999, 35.31759102670469 ], [ 139.419377172618624, 35.317536413574771 ], [ 139.4192684949453, 35.317516386572152 ], [ 139.419169415736178, 35.31749217142675 ], [ 139.419086938911278, 35.317468720705051 ], [ 139.418893021695794, 35.317429306117731 ], [ 139.418836251991593, 35.317411693794782 ], [ 139.41865238739797, 35.317362748192465 ], [ 139.418552282961627, 35.317347802359336 ], [ 139.418467912164601, 35.31733130609507 ], [ 139.418382996378341, 35.317309000210344 ], [ 139.418304331779723, 35.317296468157622 ], [ 139.418274968015567, 35.317294666815599 ], [ 139.418214720633046, 35.317289413875528 ], [ 139.418137198173326, 35.317267973138598 ], [ 139.418053139440985, 35.317252360008581 ], [ 139.417956004566122, 35.317232720613731 ], [ 139.417872775908108, 35.31720935982429 ], [ 139.41779072626116, 35.317187721236508 ], [ 139.417686278099382, 35.317160053593739 ], [ 139.417601945973161, 35.317136225156844 ], [ 139.417505913667128, 35.317114639629096 ], [ 139.417426329061982, 35.317083891808352 ], [ 139.417277367156998, 35.317054892269653 ], [ 139.417195161927339, 35.317062891739226 ], [ 139.417137224003909, 35.31703719810838 ], [ 139.4170735277213, 35.317019946413552 ], [ 139.416989468089696, 35.316983306234761 ], [ 139.416911504962172, 35.316963945629766 ], [ 139.416809689116008, 35.316932667209016 ], [ 139.416704890218739, 35.316909053710049 ], [ 139.416667523387673, 35.316905666863192 ], [ 139.41666666723313, 35.316905585924189 ], [ 139.416609804898712, 35.316900440902771 ], [ 139.416521218979256, 35.316888053640923 ], [ 139.416419079377192, 35.316862000281276 ], [ 139.416232282993633, 35.316807441110711 ], [ 139.416149053436243, 35.316782108107986 ], [ 139.416059637442459, 35.316783973301881 ], [ 139.415975447409096, 35.316750135410587 ], [ 139.415908249166591, 35.316732333330663 ], [ 139.415806641063796, 35.316708918581867 ], [ 139.415712502730003, 35.316667360010797 ], [ 139.415710920822562, 35.316666666633523 ], [ 139.415226393983062, 35.316452774576078 ], [ 139.415120998835164, 35.316391305914181 ], [ 139.415025772321769, 35.316324360381088 ], [ 139.414740337396779, 35.316121720641036 ], [ 139.414674423386145, 35.316045693753949 ], [ 139.414616588884655, 35.315974999846503 ], [ 139.414556251569934, 35.315883224931042 ], [ 139.414481439666929, 35.315698837831292 ], [ 139.414465188018198, 35.315578837693351 ], [ 139.414467471396847, 35.315478171180814 ], [ 139.414482918152316, 35.315339946281654 ], [ 139.414499143720718, 35.31528780179076 ], [ 139.414569221592501, 35.315284000356485 ], [ 139.414663087431677, 35.315274026874988 ], [ 139.414741751131032, 35.315266558904739 ], [ 139.414820000243026, 35.315275946028237 ], [ 139.414883942939809, 35.315288414229087 ], [ 139.414947951287104, 35.315307747854433 ], [ 139.414962943884916, 35.315322666707857 ], [ 139.4149895332406, 35.315349441323804 ], [ 139.415031244696365, 35.315321027243783 ], [ 139.415088494638439, 35.315286864697214 ], [ 139.415145746379267, 35.315253802021516 ], [ 139.41517377375078, 35.315212333382647 ], [ 139.41520941568217, 35.315123135024805 ], [ 139.415195188407438, 35.315086252029062 ], [ 139.415140660713064, 35.315044558559691 ], [ 139.41500299609163, 35.31499846830485 ], [ 139.414953256387889, 35.314983532364295 ], [ 139.414910894722198, 35.314964892116222 ], [ 139.41486418933107, 35.314959251568382 ], [ 139.414766614687665, 35.314965305804378 ], [ 139.41468613525717, 35.314981053832753 ], [ 139.414602724036627, 35.314992225211199 ], [ 139.414443839012165, 35.315006000126971 ], [ 139.414334669409641, 35.315021305688845 ], [ 139.414096082868127, 35.315052306219116 ], [ 139.413986004950402, 35.31507222530314 ], [ 139.413896693277934, 35.315082359763267 ], [ 139.413828859214618, 35.315069333083443 ], [ 139.413777030385859, 35.315051918611346 ], [ 139.413711140656801, 35.315057360409014 ], [ 139.41366433184362, 35.315045946213615 ], [ 139.413592088404357, 35.315066332945094 ], [ 139.413521997042722, 35.315093666939333 ], [ 139.413362632679537, 35.315160197885007 ], [ 139.413294578282375, 35.315196640212946 ], [ 139.413232606899442, 35.315271333405462 ], [ 139.413237471332423, 35.315309026690386 ], [ 139.413266835096579, 35.315356558558506 ], [ 139.413365667891412, 35.315426197561123 ], [ 139.41342535679496, 35.315450838085894 ], [ 139.413498754963712, 35.315465333358588 ], [ 139.413546860599354, 35.315457108159194 ], [ 139.413564448640614, 35.315435721381618 ], [ 139.413627807677358, 35.31541017074295 ], [ 139.41368369604595, 35.315387837878575 ], [ 139.413745383243054, 35.315364333197579 ], [ 139.413771309798335, 35.315352332644181 ], [ 139.413809663185589, 35.315355721289677 ], [ 139.413861218620468, 35.315360774580256 ], [ 139.413925279128534, 35.315350999848931 ], [ 139.413949494273879, 35.315344504945131 ], [ 139.414011530407947, 35.31541150533684 ], [ 139.414051971121694, 35.315478333058763 ], [ 139.41407652441228, 35.31553910834333 ], [ 139.414102607449536, 35.315620586021396 ], [ 139.414113113329677, 35.315781802088679 ], [ 139.41410503202178, 35.315859748129014 ], [ 139.414090441420967, 35.315934053713761 ], [ 139.414036834632384, 35.316072134721423 ], [ 139.413960661155784, 35.316192134859307 ], [ 139.413912723693443, 35.31625686536222 ], [ 139.41380483832279, 35.316381613021179 ], [ 139.413750219796952, 35.316439198410421 ], [ 139.413639754271458, 35.316533639815816 ], [ 139.413514136968047, 35.31661938657561 ], [ 139.413445382898317, 35.316666666633523 ], [ 139.413444383751539, 35.316667360010797 ], [ 139.413394162910436, 35.316701892178742 ], [ 139.41331897509076, 35.316742558622366 ], [ 139.413243696439622, 35.316769693866433 ], [ 139.413140466859204, 35.316804504824177 ], [ 139.413042633211148, 35.316838134972102 ], [ 139.412976057299375, 35.316870640068146 ], [ 139.412803501680401, 35.316933667255114 ], [ 139.412714279940246, 35.316956973185938 ], [ 139.41262360579492, 35.31698777496598 ], [ 139.412535304960556, 35.317009359594408 ], [ 139.412420699855602, 35.317033586431023 ], [ 139.412300052205865, 35.31707183819492 ], [ 139.412055576903526, 35.317132278931695 ], [ 139.411931413803927, 35.317156171220518 ], [ 139.411810311097156, 35.317179999657412 ], [ 139.411685888093416, 35.317209748331379 ], [ 139.411579170042842, 35.317238945720931 ], [ 139.411492139950496, 35.317264586291799 ], [ 139.411402166377002, 35.317290693610801 ], [ 139.411292048889095, 35.317311946389395 ], [ 139.411100142557757, 35.317357053685271 ], [ 139.411020000372901, 35.317372279207461 ], [ 139.410867523017941, 35.317400251720414 ], [ 139.410729805336473, 35.317428504821805 ], [ 139.410459780294786, 35.317474891852953 ], [ 139.41035022038659, 35.317496053800028 ], [ 139.41019542188144, 35.317530585967916 ], [ 139.410054162669667, 35.317560558573064 ], [ 139.409917223801017, 35.317583413943566 ], [ 139.409800466618435, 35.317598054007135 ], [ 139.409681283964233, 35.317610360330036 ], [ 139.409583307323942, 35.317630640042182 ], [ 139.409509300314085, 35.317645000416576 ], [ 139.409471284172582, 35.317644585829157 ], [ 139.409452023392305, 35.317452441177409 ], [ 139.409366226270549, 35.317458080825929 ], [ 139.409388781267467, 35.317665225270105 ], [ 139.409351750782889, 35.317683108288975 ], [ 139.409263722443029, 35.317712278698878 ], [ 139.409172775803086, 35.317729170664848 ], [ 139.409042750023104, 35.31775550461299 ], [ 139.408811803222306, 35.317797225062066 ], [ 139.408684086001927, 35.317804279344159 ], [ 139.408554721223595, 35.31780725160354 ], [ 139.408453579869047, 35.31782246813259 ], [ 139.408337951335511, 35.31785372137233 ], [ 139.408334188572098, 35.317854305931633 ], [ 139.408333333316818, 35.317854440829933 ], [ 139.408226977693062, 35.317871170917954 ], [ 139.407978029162905, 35.317907532306947 ], [ 139.407849390137471, 35.317920135406098 ], [ 139.407587612778229, 35.317945640179289 ], [ 139.407464136760723, 35.317958891689671 ], [ 139.407350804196426, 35.317970386824072 ], [ 139.407282580726701, 35.317973225084415 ], [ 139.407277056191333, 35.31791758582807 ], [ 139.40722722385749, 35.317920999654575 ], [ 139.407234034423368, 35.317986748190037 ], [ 139.407160272029159, 35.317999198404436 ], [ 139.407046005069219, 35.318017918692135 ], [ 139.406921894130278, 35.318030802379781 ], [ 139.40682185534456, 35.31804299988471 ], [ 139.406732282868688, 35.318054108310605 ], [ 139.406643358804104, 35.318064440621583 ], [ 139.406529299587646, 35.318082332633708 ], [ 139.406131283931813, 35.318146919245066 ], [ 139.405991633607186, 35.318160586242243 ], [ 139.405778716414829, 35.318184332840872 ], [ 139.405464332313272, 35.31819694583254 ], [ 139.405091218884877, 35.318203892196038 ], [ 139.405086589174971, 35.318065413688032 ], [ 139.405079338840551, 35.318051225084162 ], [ 139.405063553940067, 35.318051558732634 ], [ 139.405050000257461, 35.318057559009333 ], [ 139.405050752090688, 35.318204667411635 ], [ 139.404206589063051, 35.318218891988465 ], [ 139.404016834809227, 35.318224081076664 ], [ 139.404012697927897, 35.318238224714491 ], [ 139.403888858584082, 35.318235774961238 ], [ 139.403326108713145, 35.318209171216438 ], [ 139.403236666639032, 35.318197224622395 ], [ 139.403152827341273, 35.318182251809617 ], [ 139.4030386638035, 35.318161278720197 ], [ 139.402816912570643, 35.318127054120396 ], [ 139.402571894077823, 35.318083080869656 ], [ 139.402385187626464, 35.318051333002757 ], [ 139.40224527919645, 35.318014946432811 ], [ 139.401787249981794, 35.317922441267797 ], [ 139.401670635791334, 35.317890946110424 ], [ 139.401574448801966, 35.317861918692756 ], [ 139.401430272189486, 35.317836359960211 ], [ 139.401345226900844, 35.31782513462241 ], [ 139.401238689614047, 35.317815386870791 ], [ 139.401174033754842, 35.317814802311432 ], [ 139.401111946359379, 35.317807197644242 ], [ 139.401058833298748, 35.317784720888312 ], [ 139.40109836569718, 35.31737922467164 ], [ 139.40106413660078, 35.317378080733988 ], [ 139.401025746341247, 35.317784270327991 ], [ 139.400979558959648, 35.317782081378141 ], [ 139.400941919634079, 35.31778030611639 ], [ 139.400961024831645, 35.317597026981389 ], [ 139.400988339940113, 35.317260532147998 ], [ 139.400957912278045, 35.317258468203931 ], [ 139.400928196878908, 35.317603774594716 ], [ 139.400755887674222, 35.317605693747907 ], [ 139.40063830131669, 35.317588891714138 ], [ 139.400528833139333, 35.317556586267585 ], [ 139.400405383202042, 35.317505108174373 ], [ 139.400276808927742, 35.317444081079657 ], [ 139.400022361043284, 35.317310467903951 ], [ 139.400000855555163, 35.317299279438373 ], [ 139.400000000299997, 35.317298801898346 ], [ 139.399901946317982, 35.317247748285126 ], [ 139.399752827031534, 35.317182586107606 ], [ 139.399596744294513, 35.317106775057766 ], [ 139.399438885396421, 35.317011721214101 ], [ 139.399166303582206, 35.316836413669705 ], [ 139.398919610551729, 35.316667333031148 ], [ 139.39891866356561, 35.316666666633523 ], [ 139.398904941709816, 35.316657278610705 ], [ 139.398778638223803, 35.316565332824041 ], [ 139.398474500997622, 35.316306332571344 ], [ 139.398524837851141, 35.31614777490006 ], [ 139.398622192160587, 35.315781721149676 ], [ 139.398655642444169, 35.315750801558409 ], [ 139.398679948421091, 35.315729612631685 ], [ 139.398662411641112, 35.315659333311771 ], [ 139.398688170922583, 35.315549802181806 ], [ 139.398785446990928, 35.315272360431265 ], [ 139.39893444936547, 35.314764387366722 ], [ 139.398939533233033, 35.314646414300739 ], [ 139.398963696217834, 35.314591802070197 ], [ 139.398991996983227, 35.314506333200882 ], [ 139.399161777294353, 35.313916612661728 ], [ 139.399089144448681, 35.3139057209724 ], [ 139.399107082326168, 35.313842333157311 ], [ 139.399091024931067, 35.313839027249458 ], [ 139.399022698039289, 35.313825171394683 ], [ 139.398934423285141, 35.314130171070701 ], [ 139.398505304576361, 35.314040532045055 ], [ 139.398483281078711, 35.314114918568805 ], [ 139.398914228109334, 35.314204278804596 ], [ 139.398790557838197, 35.314628026762193 ], [ 139.398641893608669, 35.315115107676263 ], [ 139.398444280179547, 35.315811081316497 ], [ 139.398326278335276, 35.3162227747614 ], [ 139.398245940098263, 35.316539251585368 ], [ 139.397639831213382, 35.316417531943728 ], [ 139.397701335848183, 35.316227559154697 ], [ 139.397112750253427, 35.316101306030589 ], [ 139.397276354919995, 35.315577198229278 ], [ 139.397251192788531, 35.315571775317323 ], [ 139.397565524729316, 35.314524468029958 ], [ 139.397734060378752, 35.313965305554575 ], [ 139.398162048639847, 35.314050386816064 ], [ 139.398179559339383, 35.31398655923249 ], [ 139.397709947756084, 35.313883531999579 ], [ 139.397608417894389, 35.313522613378098 ], [ 139.397274137191857, 35.313077081142524 ], [ 139.397734721380516, 35.312829972625309 ], [ 139.399262139836082, 35.313177919425584 ], [ 139.399264720890301, 35.313170251805843 ], [ 139.39942386491964, 35.313208134847685 ], [ 139.399413696285251, 35.313236864589783 ], [ 139.400000000299997, 35.313376252312366 ], [ 139.400000830374211, 35.313376441169964 ], [ 139.400049300235196, 35.313387973176589 ], [ 139.400086057325893, 35.313284170728082 ], [ 139.400000830374211, 35.313263918894904 ], [ 139.400000000299997, 35.313263721044052 ], [ 139.399290311099207, 35.313094973154648 ], [ 139.399227056383779, 35.313075838279474 ], [ 139.399235109812594, 35.312968306342441 ], [ 139.399361388117768, 35.312921171075345 ], [ 139.399342555414819, 35.312908505023643 ], [ 139.399322412399556, 35.31288697255593 ], [ 139.399327366764737, 35.312866054325127 ], [ 139.399355550618338, 35.312839946106806 ], [ 139.399373449825021, 35.312804027184256 ], [ 139.399379363766798, 35.312766386959368 ], [ 139.399364228176751, 35.312743531588865 ], [ 139.39933338502783, 35.312746747564518 ], [ 139.399265446643199, 35.312787973386435 ], [ 139.39921791207712, 35.312812134572539 ], [ 139.399177445283044, 35.312835305605063 ], [ 139.39917435791051, 35.312854332561585 ], [ 139.399186835104501, 35.312886468036254 ], [ 139.399201244941651, 35.312947720860791 ], [ 139.399171245356911, 35.312960612642314 ], [ 139.39908464334178, 35.312931441333092 ], [ 139.39905566808477, 35.312941252037319 ], [ 139.399008495046132, 35.312960666601668 ], [ 139.398912022971672, 35.313003945575815 ], [ 139.398783190591985, 35.312974640267612 ], [ 139.39886316460354, 35.312868198308877 ], [ 139.398907198108873, 35.312819946083835 ], [ 139.398904305889232, 35.312765225035264 ], [ 139.39891272444288, 35.312751360187292 ], [ 139.398927976944719, 35.312757918942964 ], [ 139.398944527168396, 35.312749387074746 ], [ 139.39895099868977, 35.312732026561946 ], [ 139.398978418119668, 35.31268127871823 ], [ 139.398991192989342, 35.312658170638258 ], [ 139.39898966324256, 35.312633198263654 ], [ 139.398980725780007, 35.312614252246135 ], [ 139.398950947428489, 35.312599053703536 ], [ 139.398924189000354, 35.312593279156658 ], [ 139.398890025554465, 35.312595252269261 ], [ 139.398856109422127, 35.312603775144282 ], [ 139.398821362316198, 35.312613801685757 ], [ 139.398784773398802, 35.312636135449452 ], [ 139.398761245335436, 35.312659332562305 ], [ 139.398732555163519, 35.312677251554078 ], [ 139.398707588184834, 35.312697721023198 ], [ 139.398694941918166, 35.31271686489157 ], [ 139.398646719370731, 35.31274922519674 ], [ 139.398592114334747, 35.312780775212786 ], [ 139.398556394162483, 35.312798586285908 ], [ 139.398539104696056, 35.312819251807184 ], [ 139.39851953275047, 35.312839467667459 ], [ 139.398500700047407, 35.31285066692493 ], [ 139.398459467930252, 35.312883865398248 ], [ 139.398443255851703, 35.312897053956021 ], [ 139.398384137118455, 35.312883585709073 ], [ 139.3982483916501, 35.312852640037477 ], [ 139.398258884939764, 35.312840504585779 ], [ 139.39825591357976, 35.312829666855805 ], [ 139.398233384663172, 35.312817251714932 ], [ 139.398234578063466, 35.312803108077162 ], [ 139.398250660639633, 35.31278361257381 ], [ 139.398249052651863, 35.312770171306511 ], [ 139.398230117426124, 35.312755667040562 ], [ 139.398201997424394, 35.312746279017745 ], [ 139.398172943926397, 35.312747720630966 ], [ 139.398145278981588, 35.31273986505289 ], [ 139.398128054266522, 35.31275125226864 ], [ 139.39813496825434, 35.312771945668942 ], [ 139.398150947408453, 35.312790801754261 ], [ 139.398161829205264, 35.312809864683686 ], [ 139.398161167304238, 35.312832747933157 ], [ 139.398007081961396, 35.312797586239753 ], [ 139.398036744300498, 35.312779505370031 ], [ 139.39805333319498, 35.312741505416284 ], [ 139.398054968162455, 35.312723305836073 ], [ 139.39805033665391, 35.312706693559221 ], [ 139.398042918146302, 35.312696053680099 ], [ 139.398024527010534, 35.312701467598799 ], [ 139.398014332295816, 35.312712972625775 ], [ 139.397999468301009, 35.312716694020367 ], [ 139.39798063559806, 35.312721053933672 ], [ 139.39797177727587, 35.312734720930791 ], [ 139.397940194884313, 35.312756333438188 ], [ 139.397924838061044, 35.31276577542036 ], [ 139.397924086227817, 35.312779919058187 ], [ 139.397807275985201, 35.312752081443591 ], [ 139.397822282972129, 35.31274419798649 ], [ 139.397807133892343, 35.312716747979721 ], [ 139.397788832688661, 35.312706108100599 ], [ 139.397768612331788, 35.312700559283542 ], [ 139.397745498855897, 35.3127044407575 ], [ 139.397715252856756, 35.312705667432795 ], [ 139.397693113346691, 35.312713720861666 ], [ 139.397669338869036, 35.312735891848092 ], [ 139.397680117243794, 35.312756748025663 ], [ 139.397624642563414, 35.312786666671514 ], [ 139.397613994590301, 35.312782838257533 ], [ 139.397594747299877, 35.312781224873788 ], [ 139.397579558649909, 35.312787135218286 ], [ 139.397567275709434, 35.312795360417738 ], [ 139.397562503007293, 35.312807973409406 ], [ 139.397561335687215, 35.312820586401131 ], [ 139.397159104908951, 35.313036667408426 ], [ 139.39755204928781, 35.313532585960218 ], [ 139.397590946764922, 35.313679748321874 ], [ 139.397563605576124, 35.313673332558437 ], [ 139.397542892390788, 35.313681386886685 ], [ 139.3975221657156, 35.31371213470743 ], [ 139.397543916718519, 35.313799639641843 ], [ 139.397558520809298, 35.313843414142411 ], [ 139.397563554314729, 35.313888107750131 ], [ 139.397560440861866, 35.313912386747404 ], [ 139.397500414712567, 35.314097135374652 ], [ 139.397372632740939, 35.314523225166852 ], [ 139.39724055830527, 35.314956333268356 ], [ 139.397154384367468, 35.315289640005062 ], [ 139.39709141383787, 35.315549467634014 ], [ 139.396982891747257, 35.315606865064922 ], [ 139.39690002641521, 35.315656414112368 ], [ 139.396809611274762, 35.315703505312683 ], [ 139.396715525101627, 35.315750135160783 ], [ 139.39655968877878, 35.315814999662678 ], [ 139.396448611714277, 35.315852639887567 ], [ 139.396353528193004, 35.315889171248443 ], [ 139.39625994833807, 35.31592622511539 ], [ 139.396164280257494, 35.315943359898313 ], [ 139.396069000684065, 35.31596997263631 ], [ 139.395969947555159, 35.316004027264228 ], [ 139.395882243870687, 35.316034721125618 ], [ 139.39578841760158, 35.316060892296491 ], [ 139.395692866432796, 35.316098585581415 ], [ 139.3956054990947, 35.316123693753639 ], [ 139.395509416426648, 35.316137667419582 ], [ 139.395392671834543, 35.316173026963781 ], [ 139.395296808600961, 35.316204693891677 ], [ 139.395193865005012, 35.316227837944552 ], [ 139.395074500687883, 35.316251305753326 ], [ 139.39475841776698, 35.316295225044769 ], [ 139.394408248741911, 35.316334892341558 ], [ 139.394067003689429, 35.31637466665768 ], [ 139.393463968687342, 35.316418171361704 ], [ 139.393418755271568, 35.316420441250557 ], [ 139.393328663886905, 35.316424891995325 ], [ 139.393069338978989, 35.316442613136246 ], [ 139.392747198224811, 35.316465667256921 ], [ 139.391667523437604, 35.316534027423586 ], [ 139.391666667283062, 35.31653408138294 ], [ 139.391525135576671, 35.316543053918963 ], [ 139.39121038904841, 35.316560107762939 ], [ 139.391119947827519, 35.316571864600064 ], [ 139.391035498789392, 35.316585721354102 ], [ 139.390936887227781, 35.316580748103206 ], [ 139.390648521412345, 35.316561026870033 ], [ 139.390618171091887, 35.316561197741237 ], [ 139.390532477392071, 35.316561972956833 ], [ 139.390390272093555, 35.316561532289029 ], [ 139.39032044063606, 35.316560838012435 ], [ 139.390187055888077, 35.316561532289029 ], [ 139.390122970199059, 35.31655397258794 ], [ 139.390064188711563, 35.316539613112809 ], [ 139.389991555865777, 35.316530054218788 ], [ 139.389932970430436, 35.316531919412739 ], [ 139.389867444926836, 35.316539613112809 ], [ 139.389819363572997, 35.31654610801661 ], [ 139.38977082986014, 35.31655097334891 ], [ 139.389714422582756, 35.316552225205214 ], [ 139.38964922173443, 35.316548081129213 ], [ 139.389586782703987, 35.316542197764363 ], [ 139.389540078212235, 35.316533801693765 ], [ 139.389494280237045, 35.316524080921738 ], [ 139.389445473130309, 35.316520305567792 ], [ 139.389393359216342, 35.31651658597184 ], [ 139.389328832859519, 35.31650833289342 ], [ 139.389273696324153, 35.316498586041064 ], [ 139.389216109136328, 35.316489359896195 ], [ 139.389171479380479, 35.316487027054848 ], [ 139.389113968634888, 35.316482667141543 ], [ 139.389044137177393, 35.316482864992395 ], [ 139.388975083633341, 35.31648233259375 ], [ 139.388914942370889, 35.316478864807948 ], [ 139.388857133949728, 35.316468305867772 ], [ 139.388781051304704, 35.316448000075297 ], [ 139.388731478874774, 35.316442945885399 ], [ 139.388681855183677, 35.316443945931553 ], [ 139.388597056309322, 35.316448134973598 ], [ 139.38856372203827, 35.316450000167549 ], [ 139.388540803715273, 35.316458107555775 ], [ 139.388509974056205, 35.316464946000622 ], [ 139.388474136972036, 35.316459945770021 ], [ 139.388430414632126, 35.316451585672326 ], [ 139.388388612344784, 35.316451693590977 ], [ 139.38834958536529, 35.316448305844801 ], [ 139.388304773047025, 35.316439306329073 ], [ 139.388266419659772, 35.316433666680553 ], [ 139.388216589124454, 35.316436918629051 ], [ 139.388157393049482, 35.316440747942352 ], [ 139.388113644629129, 35.316438693890802 ], [ 139.387959883042299, 35.31641910755593 ], [ 139.387852581331686, 35.316410775337204 ], [ 139.38774119310176, 35.316410359850408 ], [ 139.387545330652642, 35.316388107924979 ], [ 139.38741880683267, 35.316377558877434 ], [ 139.387332218307392, 35.316361441227684 ], [ 139.387212309001029, 35.316343387337611 ], [ 139.387091608291257, 35.31634027928061 ], [ 139.386973280892335, 35.316336413994463 ], [ 139.386875642397172, 35.31633380236326 ], [ 139.386756355421653, 35.31632661318281 ], [ 139.386660117170891, 35.316310467654148 ], [ 139.386479883140282, 35.316303053643196 ], [ 139.386352165919902, 35.316271026986499 ], [ 139.386266886807562, 35.316259441020577 ], [ 139.386165161792974, 35.316254558601145 ], [ 139.386068858790964, 35.316251946070622 ], [ 139.386005615766749, 35.316253973142523 ], [ 139.38592863829615, 35.316267891949792 ], [ 139.385795330890005, 35.316272224883448 ], [ 139.385682555006042, 35.316261612883295 ], [ 139.385590414965804, 35.316259000352773 ], [ 139.385487276216963, 35.316251865131619 ], [ 139.385379999687416, 35.316241387130503 ], [ 139.385180610097223, 35.31622144106683 ], [ 139.385067755972386, 35.3162266940069 ], [ 139.384965887965564, 35.316233080992049 ], [ 139.384843942594102, 35.316226774945847 ], [ 139.384753112866065, 35.316227613113995 ], [ 139.384656887205779, 35.316224999684152 ], [ 139.384559195650581, 35.316211107856532 ], [ 139.384472528884316, 35.316210775107379 ], [ 139.384318494802869, 35.316201198226906 ], [ 139.384146640655104, 35.316175775291981 ], [ 139.384009196367515, 35.316151559247203 ], [ 139.383831192655634, 35.316119252002068 ], [ 139.383725446772132, 35.31609289197354 ], [ 139.383618274563901, 35.316059865270745 ], [ 139.383497562162916, 35.315996332664781 ], [ 139.38343046734235, 35.315936305616162 ], [ 139.383372113932069, 35.315865198020617 ], [ 139.38336155589127, 35.315828774578449 ], [ 139.383366614577767, 35.315770306054958 ], [ 139.383381920139641, 35.315747721380376 ], [ 139.383392554622901, 35.315734171295162 ], [ 139.383580388824043, 35.3156137205969 ], [ 139.383623942990766, 35.315573748429927 ], [ 139.383625577058865, 35.315556801605283 ], [ 139.383615473175723, 35.31553558569891 ], [ 139.383547223625669, 35.315489721173833 ], [ 139.383519831175477, 35.315467559180661 ], [ 139.38333418862203, 35.315345468119006 ], [ 139.383333333366863, 35.315344891653581 ], [ 139.383227588382624, 35.315275359670295 ], [ 139.383011751091658, 35.315191532063693 ], [ 139.382929000872878, 35.315179694287622 ], [ 139.381696887401631, 35.315089639775238 ], [ 139.381018780592399, 35.315025054063142 ], [ 139.380841724766015, 35.315008720576145 ], [ 139.380641388189702, 35.314996774881422 ], [ 139.38051418897885, 35.31499008122745 ], [ 139.380462361049354, 35.31499666696277 ], [ 139.380415057608957, 35.315057224611394 ], [ 139.380409533073703, 35.31508172124461 ], [ 139.380401996754927, 35.315131558974429 ], [ 139.379930026249895, 35.315106081180886 ], [ 139.379932217897704, 35.315007558652098 ], [ 139.379933554290233, 35.314983775181247 ], [ 139.37992817094846, 35.31496408092778 ], [ 139.379897638965076, 35.314936081435178 ], [ 139.378799248386827, 35.314866026945765 ], [ 139.378784189239127, 35.314867946099014 ], [ 139.378768833315235, 35.314879613003882 ], [ 139.378758780693374, 35.314887305804689 ], [ 139.378744253944319, 35.314909802345653 ], [ 139.378744837604359, 35.314982359648354 ], [ 139.378729637263177, 35.314985359786704 ], [ 139.378314136988024, 35.3149457752275 ], [ 139.378304383840373, 35.314939972801653 ], [ 139.378288637610694, 35.314845170768194 ], [ 139.378280362948544, 35.314803837926945 ], [ 139.378172243754193, 35.314793892324417 ], [ 139.377904253878341, 35.314771170952952 ], [ 139.377811024759126, 35.314765387412876 ], [ 139.377086744058147, 35.314740027430503 ], [ 139.377075253420344, 35.314871054156015 ], [ 139.376875305351291, 35.314854440979843 ], [ 139.376870752083732, 35.314843694081389 ], [ 139.37687241223216, 35.314722026600407 ], [ 139.376032308744243, 35.314661972572139 ], [ 139.376012892381254, 35.314673775274684 ], [ 139.375987328252791, 35.314913837603683 ], [ 139.37599364509083, 35.314929000173379 ], [ 139.376007782433362, 35.314936891724358 ], [ 139.376030636005225, 35.314942468420327 ], [ 139.376525305398673, 35.314978414322525 ], [ 139.377498638051861, 35.315051225234015 ], [ 139.377729753925223, 35.315062026991143 ], [ 139.377713528356821, 35.315128666754731 ], [ 139.377673385318644, 35.315170774811577 ], [ 139.377634668605197, 35.315228252282168 ], [ 139.377613217076487, 35.315287558973807 ], [ 139.377597249613586, 35.315349532155324 ], [ 139.377589558611476, 35.315409080764653 ], [ 139.377566472115177, 35.315505532154759 ], [ 139.377532022684932, 35.315566170742329 ], [ 139.377166394313804, 35.315543505128801 ], [ 139.376005811119512, 35.315463585975863 ], [ 139.375000855605208, 35.31539219779188 ], [ 139.375000000349928, 35.315392134839328 ], [ 139.374708274667341, 35.315371413560058 ], [ 139.374711440280976, 35.31535330571063 ], [ 139.374673773975701, 35.315348134608882 ], [ 139.374627327589224, 35.315580053576753 ], [ 139.37461511029926, 35.315578279214378 ], [ 139.374612113758189, 35.315601468233353 ], [ 139.374591608316223, 35.315598585906173 ], [ 139.3745957200166, 35.315575333035383 ], [ 139.374580999014029, 35.315573558672952 ], [ 139.374621997307486, 35.31534153178643 ], [ 139.374607755643638, 35.315340973307457 ], [ 139.374597249763497, 35.315339865342651 ], [ 139.374558884684916, 35.315571440769531 ], [ 139.37454297028205, 35.315569000009532 ], [ 139.374538974594202, 35.315591612563026 ], [ 139.37451014322869, 35.315588559364699 ], [ 139.374514720777938, 35.315565640142324 ], [ 139.374499999775367, 35.315563972799282 ], [ 139.374541114980616, 35.315330945866606 ], [ 139.374503022396766, 35.315328559065904 ], [ 139.374503256220464, 35.315355667330323 ], [ 139.374410195274436, 35.315341973353554 ], [ 139.374360738857149, 35.315332604216451 ], [ 139.374361140854148, 35.315343666776982 ], [ 139.374111414410436, 35.316440891833849 ], [ 139.374059974088709, 35.316666666633523 ], [ 139.374059857176803, 35.316667279071851 ], [ 139.374030895409646, 35.316794505262351 ], [ 139.373820337139023, 35.317810892059185 ], [ 139.373811725231121, 35.317850053936979 ], [ 139.373590337324345, 35.318848108053885 ], [ 139.373500051686165, 35.319334504583878 ], [ 139.373225887964509, 35.319739505274129 ], [ 139.373058391931409, 35.319938946125603 ], [ 139.372836161359942, 35.320164468215808 ], [ 139.372324501075013, 35.320699197909846 ], [ 139.372247833870574, 35.32077919800173 ], [ 139.372158105812105, 35.320873080928095 ], [ 139.37215700414265, 35.320874197886099 ], [ 139.372070609870889, 35.320964468235786 ], [ 139.371809221918284, 35.321212801629656 ], [ 139.371730336985593, 35.321319468418892 ], [ 139.371293112687226, 35.321714197952019 ], [ 139.370843385114313, 35.322108919391269 ], [ 139.370566718579425, 35.322370586133786 ], [ 139.370108690264033, 35.322746413716175 ], [ 139.369981479361968, 35.322825027053511 ], [ 139.369857030277899, 35.322940305750649 ], [ 139.369715641563744, 35.323033080712264 ], [ 139.369628974797479, 35.323090026683531 ], [ 139.369437859869549, 35.323265586038133 ], [ 139.369443968964219, 35.323601972952872 ], [ 139.369477302335781, 35.324258081445464 ], [ 139.369492580918063, 35.324551972695531 ], [ 139.369486471823393, 35.324983640083076 ], [ 139.369486614815628, 35.324999999650402 ], [ 139.369486614815628, 35.3250005860084 ], [ 139.369489248030504, 35.325301694317886 ], [ 139.369470920746608, 35.325605864818954 ], [ 139.369437588274309, 35.326504197610802 ], [ 139.369422581287267, 35.327411693594968 ], [ 139.369400921115812, 35.328349467953728 ], [ 139.369364553431524, 35.329127531710412 ], [ 139.36936399495255, 35.329160026913883 ], [ 139.369358444336967, 35.32945835991552 ], [ 139.369352335242297, 35.329782802034856 ], [ 139.36955427980638, 35.329789198013259 ], [ 139.36983594027663, 35.329797801827283 ], [ 139.37058455303486, 35.329831135198901 ], [ 139.370837613265394, 35.329863080916596 ], [ 139.371210389448038, 35.329910306115892 ], [ 139.371556226438884, 35.329982802264681 ], [ 139.371556226438884, 35.330167801802759 ], [ 139.371562334634177, 35.330372531567264 ], [ 139.371562048649821, 35.330608919266353 ], [ 139.371559000847355, 35.331181414191065 ], [ 139.371538444144107, 35.331472531931979 ], [ 139.371528171188288, 35.331619467664439 ], [ 139.371488716131466, 35.33174086534882 ], [ 139.3714642797529, 35.331856694431053 ], [ 139.371397056329215, 35.332176666919793 ], [ 139.371331218760929, 35.332490559092207 ], [ 139.371267328224803, 35.3328294407263 ], [ 139.371249274334673, 35.333092225326084 ], [ 139.371248106115331, 35.333333332667337 ], [ 139.371248106115331, 35.33333389204563 ], [ 139.371245939648588, 35.333786108042602 ], [ 139.371224837956106, 35.334242504987799 ], [ 139.371233748438954, 35.334797224812235 ], [ 139.37122180274423, 35.334933613295789 ], [ 139.371224864036435, 35.335033613410701 ], [ 139.37125819740811, 35.335239441247381 ], [ 139.371334033638959, 35.335269721420673 ], [ 139.371493747838372, 35.33529861304072 ], [ 139.371519026881742, 35.335303053892972 ], [ 139.371807639111466, 35.335354720843839 ], [ 139.371887366708734, 35.335443054053883 ], [ 139.371944863964472, 35.3355041710808 ], [ 139.372158470037562, 35.335732224762523 ], [ 139.372420699755708, 35.336050838375684 ], [ 139.372502633390013, 35.336136107595451 ], [ 139.372548196642128, 35.336179999907245 ], [ 139.372598197149273, 35.336202505441463 ], [ 139.372672360641104, 35.336220838121335 ], [ 139.372804033979151, 35.33624333286366 ], [ 139.372930143211761, 35.336258613244581 ], [ 139.373126808755387, 35.336284440874408 ], [ 139.373327366564922, 35.336343892356922 ], [ 139.37369486372711, 35.336488333370028 ], [ 139.373861803079876, 35.33657750474822 ], [ 139.373913747921279, 35.336608332608648 ], [ 139.374565421856914, 35.33745166736071 ], [ 139.374801529866886, 35.337694171349085 ], [ 139.374851530374031, 35.337745278921659 ], [ 139.374967639145439, 35.337864440891394 ], [ 139.374985422339591, 35.337910837815059 ], [ 139.375000000349928, 35.337948585958657 ], [ 139.375000973416377, 35.33795108067801 ], [ 139.375015694418948, 35.337989170563958 ], [ 139.375092633218628, 35.338190559347026 ], [ 139.375161530280593, 35.338368332832488 ], [ 139.375195966220986, 35.338456666941795 ], [ 139.375212088367334, 35.338586946330679 ], [ 139.375000973416377, 35.339203559297005 ], [ 139.375000000349928, 35.33920641374516 ], [ 139.374868470004117, 35.339590559157159 ], [ 139.374837276119592, 35.339756306008894 ], [ 139.374820894968479, 35.339827170787487 ], [ 139.374163060676892, 35.339800306239283 ], [ 139.373268755049139, 35.339871278936528 ], [ 139.372726108623169, 35.339889775293045 ], [ 139.372470168763471, 35.339931973282091 ], [ 139.372442048761741, 35.34012377529217 ], [ 139.372448300848532, 35.340307945655354 ], [ 139.372123695952041, 35.34031305380455 ], [ 139.372128366131392, 35.339916612861543 ], [ 139.371752502576101, 35.339827440584088 ], [ 139.371399026743916, 35.339806359576016 ], [ 139.371143864797659, 35.339817864602935 ], [ 139.370891024901084, 35.339863891905225 ], [ 139.370687393208755, 35.339890748359494 ], [ 139.370215551306842, 35.339942721079865 ], [ 139.369707588134816, 35.340011774623861 ], [ 139.369625641910034, 35.34003480176483 ], [ 139.369562437556624, 35.340067413880206 ], [ 139.369525005974424, 35.340115360335801 ], [ 139.369489921622744, 35.340282252024451 ], [ 139.369450829892116, 35.340467972818828 ], [ 139.369377081887023, 35.340948467997578 ], [ 139.369306861023006, 35.341302333236229 ], [ 139.369220116915017, 35.341666666583535 ], [ 139.369220000003224, 35.341667225062565 ], [ 139.369180946943288, 35.341831279390192 ], [ 139.369138807410195, 35.342121864732462 ], [ 139.369054527444632, 35.342478613197613 ], [ 139.368993164902804, 35.342774224850757 ], [ 139.36896158161187, 35.343001532095172 ], [ 139.368929974039247, 35.34310508093489 ], [ 139.368819805289945, 35.343534134892593 ], [ 139.368770635756391, 35.34374705388359 ], [ 139.368749105087318, 35.34397141404969 ], [ 139.368749105087318, 35.34415841368002 ], [ 139.368766667048249, 35.34430802669425 ], [ 139.368889584586782, 35.344857532249478 ], [ 139.368966834551998, 35.345197000241512 ], [ 139.369179467558524, 35.346124026802556 ], [ 139.369421854635107, 35.347195251559754 ], [ 139.369898248905201, 35.349324413590978 ], [ 139.370063580270198, 35.34999999960047 ], [ 139.370063722363057, 35.350000531999115 ], [ 139.370156303970475, 35.350378865092694 ], [ 139.370214642991527, 35.350617748410514 ], [ 139.370294915578029, 35.350964694265372 ], [ 139.370331310241909, 35.351088864559642 ], [ 139.370438248626442, 35.351164413906758 ], [ 139.370800466768287, 35.351089135255563 ], [ 139.371234358179208, 35.351045251936966 ], [ 139.371806861197911, 35.350987198000951 ], [ 139.372445745874643, 35.35083774776399 ], [ 139.372664357574195, 35.350818585909167 ], [ 139.373008806911116, 35.350714171022332 ], [ 139.37326046689725, 35.350607505132416 ], [ 139.373434358009376, 35.35053917104608 ], [ 139.37350797741135, 35.350514999967459 ], [ 139.373798807369212, 35.350418892118341 ], [ 139.374546860749206, 35.350253054435086 ], [ 139.37479491625254, 35.350208054158543 ], [ 139.375000000349928, 35.350196135443468 ], [ 139.375001024677772, 35.350196080584794 ], [ 139.375125187777371, 35.35018889230372 ], [ 139.375493527604362, 35.350179441328294 ], [ 139.375666861136892, 35.350214999622722 ], [ 139.375792697874886, 35.350284170977886 ], [ 139.376051582114997, 35.350426946446589 ], [ 139.37626214038562, 35.350542774629503 ], [ 139.376509078931008, 35.350625837812345 ], [ 139.376911309709385, 35.350690278733566 ], [ 139.377966304401639, 35.350659720669739 ], [ 139.378267976586017, 35.350644999667168 ], [ 139.378456861195332, 35.35063583827349 ], [ 139.378860752122137, 35.350631107839547 ], [ 139.378948520557969, 35.350638054202989 ], [ 139.379081582449203, 35.350648891932963 ], [ 139.379224086322665, 35.350702505016784 ], [ 139.379636304072392, 35.350792775366472 ], [ 139.379906303933012, 35.350767224727804 ], [ 139.380108249396358, 35.350748053879727 ], [ 139.380510195089641, 35.350747505293327 ], [ 139.381065188307957, 35.350768892070903 ], [ 139.381461854980785, 35.350752504624552 ], [ 139.381548520847787, 35.350755279033081 ], [ 139.381679364111505, 35.350759720784652 ], [ 139.381736588872627, 35.350769170860701 ], [ 139.381930467417305, 35.350804170676099 ], [ 139.38213075183296, 35.350840559044741 ], [ 139.382517418943962, 35.35087999971239 ], [ 139.382712411748571, 35.350899720945506 ], [ 139.383166304081897, 35.350928332876435 ], [ 139.383333333366863, 35.350953558859828 ], [ 139.383334357694594, 35.350953693758129 ], [ 139.383544085891003, 35.350985278847702 ], [ 139.384299079339257, 35.351050000357418 ], [ 139.384719637401531, 35.351083332829717 ], [ 139.384806589252889, 35.351102504577113 ], [ 139.384847976952756, 35.351111666870111 ], [ 139.384985745895619, 35.351145000241729 ], [ 139.385035187923791, 35.351148612818406 ], [ 139.385934915564121, 35.351216667215567 ], [ 139.386941309993631, 35.351334440632115 ], [ 139.387025746441168, 35.351344441093261 ], [ 139.388081581999586, 35.351433613370716 ], [ 139.389225187792363, 35.351555000263204 ], [ 139.389288806733248, 35.351561666937528 ], [ 139.389748807261867, 35.35160308071778 ], [ 139.390320466716389, 35.351636414089398 ], [ 139.39052518838696, 35.351633359991752 ], [ 139.390578520882173, 35.351639198390444 ], [ 139.390721024755635, 35.351660026689046 ], [ 139.39083075193787, 35.351695585882737 ], [ 139.391029637008273, 35.351748639588209 ], [ 139.39126408576908, 35.351793081385779 ], [ 139.391311310069113, 35.35179197342103 ], [ 139.391516304234187, 35.351787531669402 ], [ 139.391666667283062, 35.351759837946304 ], [ 139.391667690711529, 35.351759667075157 ], [ 139.391774358400085, 35.351740026780988 ], [ 139.392040466894173, 35.351695585882737 ], [ 139.392093800288876, 35.351698639980441 ], [ 139.392186031160577, 35.351728359876063 ], [ 139.39260435800486, 35.351911972659593 ], [ 139.393358521378786, 35.352196135043755 ], [ 139.393485473276201, 35.352243918722024 ], [ 139.393814915626081, 35.352353639608964 ], [ 139.393977977102168, 35.352383080714787 ], [ 139.394093799889106, 35.352368359712216 ], [ 139.394235472788978, 35.352327251701468 ], [ 139.394309637180186, 35.352265026709802 ], [ 139.394439636879952, 35.352209748081577 ], [ 139.394490751647027, 35.352187801925709 ], [ 139.394548248902765, 35.352166414248757 ], [ 139.394689364222927, 35.352113919022315 ], [ 139.394837691206703, 35.352069468231548 ], [ 139.394974357580736, 35.352057802225943 ], [ 139.395107691067324, 35.352051694030592 ], [ 139.395238249245949, 35.352081413926271 ], [ 139.395359363643934, 35.352229468415374 ], [ 139.395356082917033, 35.352879000165899 ], [ 139.395834112154716, 35.354516413801605 ], [ 139.396444060245358, 35.355007413961175 ], [ 139.396390636019191, 35.355380135285202 ], [ 139.396576134681027, 35.355544694132504 ], [ 139.396484967707238, 35.355855721064813 ], [ 139.396727108369532, 35.356238720740521 ], [ 139.396701946237954, 35.356459774998768 ], [ 139.396664227772021, 35.356940504900535 ], [ 139.396635914416152, 35.35746491937067 ], [ 139.396777419142722, 35.357770775201288 ], [ 139.396285032228661, 35.358333332617349 ], [ 139.396284526809609, 35.358333891995699 ], [ 139.39627527908101, 35.3583444410433 ], [ 139.396376328704832, 35.358400279049818 ], [ 139.39667741902781, 35.358518467953104 ], [ 139.396787444784877, 35.358682224605161 ], [ 139.396759974093698, 35.358851387082041 ], [ 139.396247055657227, 35.359804440922403 ], [ 139.396146108556195, 35.36009941405689 ], [ 139.395944915825339, 35.360508171215315 ], [ 139.395546082685769, 35.361066107914723 ], [ 139.395388858708998, 35.361260559327491 ], [ 139.395326354927533, 35.361323054115815 ], [ 139.395233865050955, 35.361405837609482 ], [ 139.395079688876763, 35.361506108420315 ], [ 139.394923865144392, 35.361647505228348 ], [ 139.394792750285319, 35.361798891705632 ], [ 139.394701362078422, 35.361847775254773 ], [ 139.394597470596977, 35.361869721410699 ], [ 139.394501920327571, 35.361878613007775 ], [ 139.394309689340844, 35.361896387208674 ], [ 139.394216355000935, 35.361907224938648 ], [ 139.394216083405695, 35.361907224938648 ], [ 139.394187470575503, 35.361927224961619 ], [ 139.394107755568598, 35.361982505388482 ], [ 139.394054423073385, 35.362047774585278 ], [ 139.393980246091701, 35.362157505364735 ], [ 139.393929688904223, 35.362347225444239 ], [ 139.393903307292021, 35.362541387275371 ], [ 139.393896913112258, 35.362871387204905 ], [ 139.393926641101757, 35.363025558882612 ], [ 139.393941919684039, 35.363078612588083 ], [ 139.393967197828147, 35.363167505176364 ], [ 139.394073916777984, 35.363268721174734 ], [ 139.394166912972878, 35.36335694556675 ], [ 139.394213579693087, 35.363407504552868 ], [ 139.394378028823098, 35.363586108112543 ], [ 139.394622749640348, 35.363785000377618 ], [ 139.395159727639452, 35.364228332871448 ], [ 139.39538221811506, 35.364373612952022 ], [ 139.396500829949559, 35.365177224649358 ], [ 139.396654162559685, 35.36529472107469 ], [ 139.396829169730609, 35.365428613040251 ], [ 139.396938885221516, 35.365493892129564 ], [ 139.398330558208841, 35.366510558615573 ], [ 139.398552243791187, 35.366666667432924 ], [ 139.398553021704743, 35.366667225012577 ], [ 139.398831114564473, 35.366863054186751 ], [ 139.399302775702722, 35.367236666738961 ], [ 139.399665006435043, 35.36751833260513 ], [ 139.39980722432415, 35.367607225193467 ], [ 139.400000000299997, 35.367742747629848 ], [ 139.400001114559927, 35.367743531838698 ], [ 139.400052217635903, 35.367779440868674 ], [ 139.400397782132131, 35.368021945756368 ], [ 139.400725279248377, 35.36830610814053 ], [ 139.401002218277881, 35.368635278895169 ], [ 139.401279728376949, 35.36900138660485 ], [ 139.40135916998986, 35.369137224703309 ], [ 139.401411388225142, 35.369249171412321 ], [ 139.401444163117844, 35.369320279007809 ], [ 139.401534747330857, 35.369509721196835 ], [ 139.40191141398077, 35.370298054311945 ], [ 139.402148638049425, 35.370769441156938 ], [ 139.402722243636845, 35.37205583770691 ], [ 139.402913358564774, 35.372461946361909 ], [ 139.402948079590374, 35.372535558569325 ], [ 139.403381414320961, 35.373433612571318 ], [ 139.403971724815392, 35.374688414139143 ], [ 139.404020051684256, 35.374791080743933 ], [ 139.404147081822543, 35.374999999550482 ], [ 139.404147419068295, 35.375000531949183 ], [ 139.404203670762968, 35.375093027221567 ], [ 139.404318105896095, 35.375369973445686 ], [ 139.40434450099815, 35.375433306402158 ], [ 139.404400894785681, 35.375582198160089 ], [ 139.404420337228999, 35.375624414135586 ], [ 139.404682555255931, 35.376199134882313 ], [ 139.404987833721748, 35.376794414131098 ], [ 139.405098664372076, 35.377011080597072 ], [ 139.405148949064937, 35.377156359778326 ], [ 139.405157834366719, 35.377221639767015 ], [ 139.405107562264334, 35.377259973369235 ], [ 139.405007003670448, 35.377298585761309 ], [ 139.405060051979945, 35.377374413898224 ], [ 139.4052433850743, 35.377636080640798 ], [ 139.405386161442379, 35.377939135083182 ], [ 139.405661725408436, 35.378426919267099 ], [ 139.405709779782683, 35.378518865053763 ], [ 139.405816160587506, 35.37872219817109 ], [ 139.406182282686359, 35.379356080818638 ], [ 139.406377833970055, 35.379701081439919 ], [ 139.406510362563381, 35.379836918639057 ], [ 139.406703968613442, 35.37999108132351 ], [ 139.406715914308165, 35.38000053229888 ], [ 139.406951750722897, 35.380118865093721 ], [ 139.407760921129807, 35.380561360318666 ], [ 139.407938690118613, 35.380638026623785 ], [ 139.408259533151067, 35.38083274783321 ], [ 139.408333333316818, 35.380877640191102 ], [ 139.408334526717226, 35.380878359648761 ], [ 139.408392023073588, 35.380913306404125 ], [ 139.409082580996483, 35.381247748085286 ], [ 139.409297859808589, 35.381394973399495 ], [ 139.409377588305233, 35.381432198137588 ], [ 139.409692022768809, 35.381579694147717 ], [ 139.409824527080445, 35.381596918862897 ], [ 139.409995356900367, 35.381583027035219 ], [ 139.410127860312627, 35.38150635983078 ], [ 139.410333696243242, 35.381408865227115 ], [ 139.410473968898714, 35.381418306309968 ], [ 139.410493968921742, 35.381419693963892 ], [ 139.410623139446557, 35.381468305917736 ], [ 139.4107242538214, 35.381555532062293 ], [ 139.411405913852036, 35.381954694353851 ], [ 139.411758145022532, 35.382114973327532 ], [ 139.412514812109066, 35.382383305845053 ], [ 139.412622865652907, 35.382458586294888 ], [ 139.412745084418248, 35.382543585718054 ], [ 139.412846743782325, 35.382630532173494 ], [ 139.412869248417223, 35.382649694028316 ], [ 139.413319247585378, 35.382873585647644 ], [ 139.413537301705333, 35.382931359894485 ], [ 139.413762023398817, 35.383169693726529 ], [ 139.413786472367974, 35.383298586360866 ], [ 139.413777613146522, 35.383333332567418 ], [ 139.413777471053663, 35.383333864966062 ], [ 139.413754811735316, 35.383422747661825 ], [ 139.413730636160153, 35.383518306025167 ], [ 139.413734254132692, 35.383612197944728 ], [ 139.413765642270732, 35.383681918785669 ], [ 139.413824812265489, 35.38373080233481 ], [ 139.413992309197852, 35.383772467925212 ], [ 139.414077859905433, 35.383792747637358 ], [ 139.414238145174409, 35.383861080824374 ], [ 139.414357030153042, 35.383920251718394 ], [ 139.415016199937895, 35.384245532005878 ], [ 139.415225357064742, 35.384346640085539 ], [ 139.415333695693676, 35.384447748165201 ], [ 139.415926472129172, 35.384688027230823 ], [ 139.415992581292812, 35.384694972695002 ], [ 139.416195641915465, 35.384696640038101 ], [ 139.416540362847627, 35.384729973409719 ], [ 139.41666666723313, 35.384732864730097 ], [ 139.416667859734162, 35.384732891709746 ], [ 139.417160921139725, 35.384744135033998 ], [ 139.417559247961094, 35.384716640061072 ], [ 139.417783968755316, 35.384712198309444 ], [ 139.418653410826437, 35.384688865398971 ], [ 139.419032581188844, 35.384691081328526 ], [ 139.419646471907299, 35.384677197594783 ], [ 139.419972308875117, 35.384630252084605 ], [ 139.420195642015415, 35.384596639923132 ], [ 139.420272309219854, 35.384569135057689 ], [ 139.420472309449679, 35.384486080868101 ], [ 139.420630362601287, 35.384393305906485 ], [ 139.42101258076616, 35.384199413872011 ], [ 139.421320921423558, 35.384080802287372 ], [ 139.421555356694512, 35.384001919153434 ], [ 139.421938975103785, 35.38397969420771 ], [ 139.422192022743843, 35.383988027325756 ], [ 139.422411751401341, 35.384049135359476 ], [ 139.422478689739933, 35.3840660812848 ], [ 139.422586744183036, 35.384093586150243 ], [ 139.423605084307383, 35.384004413872788 ], [ 139.423723139211688, 35.384010801757256 ], [ 139.424828690192044, 35.383854135360252 ], [ 139.424926200084201, 35.383822748121474 ], [ 139.425000000249952, 35.38381499956273 ], [ 139.425001192750983, 35.38381486466443 ], [ 139.425208689729402, 35.383793027326533 ], [ 139.42575619968909, 35.38373553186949 ], [ 139.426205357091703, 35.383753585759564 ], [ 139.427024812145532, 35.383788612554611 ], [ 139.427436472315549, 35.383854720818874 ], [ 139.4281573023178, 35.383963332841688 ], [ 139.428224526640747, 35.383973333302833 ], [ 139.428617587931512, 35.384082504703997 ], [ 139.429430077736129, 35.384350838120838 ], [ 139.429698689942711, 35.384472775398422 ], [ 139.429785914288686, 35.384531946292441 ], [ 139.430605356752039, 35.3849222250808 ], [ 139.43069591398546, 35.3849222250808 ], [ 139.430708689754397, 35.38490555884465 ], [ 139.430765913616142, 35.38483166694806 ], [ 139.430770362562384, 35.384813613057986 ], [ 139.43083980461347, 35.384524170754048 ], [ 139.430965357165633, 35.384328891964969 ], [ 139.430989532740909, 35.384179171032088 ], [ 139.430978418019777, 35.384122775445917 ], [ 139.430945357142718, 35.383960838122334 ], [ 139.430944527068391, 35.383956107688391 ], [ 139.430941479266039, 35.383875559009994 ] ] ] } }
]
}
