{
"type": "FeatureCollection",
"name": "chigasaki_train_route",
"crs": { "type": "name", "properties": { "name": "urn:ogc:def:crs:EPSG::6668" } },
"features": [
{ "type": "Feature", "properties": { "N02_001": "11", "N02_002": "2", "N02_003": "相模線", "N02_004": "東日本旅客鉄道", "index_right": 880 }, "geometry": { "type": "LineString", "coordinates": [ [ 139.39991, 35.35621 ], [ 139.39975, 35.35699 ] ] } },
{ "type": "Feature", "properties": { "N02_001": "11", "N02_002": "2", "N02_003": "相模線", "N02_004": "東日本旅客鉄道", "index_right": 880 }, "geometry": { "type": "LineString", "coordinates": [ [ 139.39975, 35.35699 ], [ 139.39957, 35.35764 ], [ 139.39942, 35.35801 ], [ 139.39925, 35.35836 ], [ 139.39905, 35.35872 ], [ 139.39873, 35.35918 ], [ 139.39846, 35.35955 ], [ 139.39817, 35.35986 ], [ 139.39787, 35.36017 ], [ 139.3974, 35.36058 ], [ 139.39647, 35.36131 ], [ 139.39535, 35.36209 ], [ 139.39441, 35.36275 ], [ 139.39421, 35.36289 ], [ 139.39405, 35.36301 ], [ 139.39394, 35.36308 ], [ 139.39391, 35.3631 ], [ 139.39293, 35.36377 ], [ 139.39119, 35.36496 ], [ 139.38931, 35.36627 ], [ 139.38811, 35.36713 ], [ 139.38773, 35.3674 ] ] } },
{ "type": "Feature", "properties": { "N02_001": "11", "N02_002": "2", "N02_003": "相模線", "N02_004": "東日本旅客鉄道", "index_right": 880 }, "geometry": { "type": "LineString", "coordinates": [ [ 139.40797, 35.33101 ], [ 139.40963, 35.3316 ], [ 139.40994, 35.33172 ], [ 139.41022, 35.33185 ], [ 139.41059, 35.33215 ], [ 139.41078, 35.3324 ], [ 139.41093, 35.33263 ], [ 139.41102, 35.33283 ], [ 139.41105, 35.33305 ], [ 139.41104, 35.33321 ], [ 139.41099, 35.33336 ], [ 139.41077, 35.33381 ], [ 139.41028, 35.33466 ], [ 139.40967, 35.33574 ], [ 139.40919, 35.33661 ], [ 139.40856, 35.33775 ], [ 139.40773, 35.3392 ] ] } },
{ "type": "Feature", "properties": { "N02_001": "11", "N02_002": "2", "N02_003": "相模線", "N02_004": "東日本旅客鉄道", "index_right": 880 }, "geometry": { "type": "LineString", "coordinates": [ [ 139.40773, 35.3392 ], [ 139.40721, 35.34016 ] ] } },
{ "type": "Feature", "properties": { "N02_001": "11", "N02_002": "2", "N02_003": "相模線", "N02_004": "東日本旅客鉄道", "index_right": 880 }, "geometry": { "type": "LineString", "coordinates": [ [ 139.40606, 35.33035 ], [ 139.40695, 35.33065 ], [ 139.40797, 35.33101 ] ] } },
{ "type": "Feature", "properties": { "N02_001": "11", "N02_002": "2", "N02_003": "相模線", "N02_004": "東日本旅客鉄道", "index_right": 880 }, "geometry": { "type": "LineString", "coordinates": [ [ 139.40721, 35.34016 ], [ 139.40681, 35.34087 ], [ 139.40642, 35.34155 ], [ 139.40636, 35.34167 ], [ 139.4063, 35.34179 ], [ 139.40618, 35.34199 ], [ 139.40477, 35.34454 ], [ 139.4044, 35.3452 ], [ 139.40305, 35.34763 ], [ 139.40294, 35.34782 ], [ 139.40268, 35.34828 ], [ 139.40175, 35.34998 ], [ 139.40114, 35.35111 ], [ 139.40096, 35.35159 ], [ 139.40076, 35.35229 ], [ 139.40057, 35.35313 ], [ 139.40027, 35.35447 ], [ 139.39991, 35.35621 ] ] } },
{ "type": "Feature", "properties": { "N02_001": "11", "N02_002": "2", "N02_003": "東海道線", "N02_004": "東日本旅客鉄道", "index_right": 880 }, "geometry": { "type": "LineString", "coordinates": [ [ 139.4096, 35.33122 ], [ 139.40696, 35.33026 ], [ 139.40657, 35.33013 ], [ 139.4064, 35.33007 ] ] } },
{ "type": "Feature", "properties": { "N02_001": "11", "N02_002": "2", "N02_003": "東海道線", "N02_004": "東日本旅客鉄道", "index_right": 880 }, "geometry": { "type": "LineString", "coordinates": [ [ 139.4096, 35.33122 ], [ 139.4113, 35.33182 ], [ 139.41344, 35.33263 ], [ 139.41634, 35.3337 ], [ 139.41878, 35.3346 ], [ 139.41969, 35.33493 ], [ 139.42061, 35.33527 ], [ 139.42138, 35.33544 ], [ 139.4227, 35.3356 ], [ 139.42461, 35.33571 ], [ 139.42673, 35.33582 ], [ 139.42883, 35.33593 ], [ 139.43063, 35.33602 ], [ 139.4311, 35.33605 ], [ 139.43354, 35.33616 ], [ 139.43621, 35.33631 ], [ 139.43816, 35.33642 ], [ 139.43946, 35.33647 ], [ 139.44114, 35.33657 ], [ 139.44162, 35.33661 ], [ 139.44247, 35.33665 ], [ 139.44332, 35.3367 ], [ 139.44357, 35.33672 ], [ 139.44401, 35.33674 ] ] } },
{ "type": "Feature", "properties": { "N02_001": "11", "N02_002": "2", "N02_003": "東海道線", "N02_004": "東日本旅客鉄道", "index_right": 880 }, "geometry": { "type": "LineString", "coordinates": [ [ 139.4064, 35.33007 ], [ 139.40588, 35.32989 ], [ 139.40418, 35.3293 ], [ 139.40288, 35.32885 ], [ 139.40165, 35.32841 ], [ 139.40074, 35.32806 ], [ 139.39972, 35.32774 ], [ 139.39839, 35.32743 ], [ 139.3977, 35.32732 ], [ 139.39702, 35.32724 ], [ 139.39642, 35.32722 ], [ 139.39597, 35.32726 ], [ 139.39447, 35.32745 ], [ 139.39271, 35.32769 ], [ 139.39124, 35.32786 ], [ 139.38893, 35.32815 ], [ 139.38848, 35.32822 ], [ 139.38839, 35.32823 ], [ 139.38744, 35.32834 ], [ 139.38644, 35.32846 ], [ 139.38585, 35.32854 ], [ 139.38527, 35.32863 ], [ 139.38467, 35.32874 ], [ 139.38369, 35.32902 ], [ 139.38269, 35.32932 ], [ 139.38211, 35.32949 ], [ 139.38166, 35.32961 ], [ 139.38045, 35.32999 ], [ 139.37952, 35.33028 ], [ 139.37831, 35.33065 ], [ 139.37738, 35.33097 ], [ 139.37694, 35.33112 ], [ 139.37678, 35.33117 ], [ 139.37642, 35.33127 ] ] } },
{ "type": "Feature", "properties": { "N02_001": "11", "N02_002": "2", "N02_003": "東海道線", "N02_004": "東日本旅客鉄道", "index_right": 880 }, "geometry": { "type": "LineString", "coordinates": [ [ 139.35076, 35.32775 ], [ 139.35199, 35.32798 ], [ 139.35337, 35.32824 ], [ 139.35402, 35.32841 ], [ 139.35462, 35.32856 ], [ 139.35489, 35.32862 ], [ 139.35588, 35.32883 ], [ 139.35714, 35.32905 ], [ 139.35849, 35.32927 ], [ 139.35925, 35.32941 ], [ 139.35983, 35.32951 ], [ 139.36021, 35.32958 ], [ 139.3616, 35.32979 ], [ 139.36332, 35.33005 ], [ 139.36387, 35.33015 ], [ 139.3656, 35.33045 ], [ 139.36747, 35.33078 ], [ 139.36928, 35.33109 ], [ 139.37085, 35.33138 ], [ 139.37095, 35.33139 ], [ 139.37152, 35.33147 ], [ 139.37154, 35.33147 ], [ 139.37181, 35.3315 ], [ 139.37193, 35.33152 ], [ 139.37231, 35.33156 ], [ 139.37251, 35.33158 ], [ 139.37272, 35.3316 ], [ 139.37296, 35.33161 ], [ 139.37314, 35.33162 ], [ 139.37341, 35.33162 ], [ 139.37371, 35.3316 ], [ 139.37394, 35.33159 ], [ 139.37436, 35.33157 ], [ 139.37464, 35.33155 ], [ 139.37489, 35.33151 ], [ 139.37512, 35.33149 ], [ 139.37533, 35.33145 ], [ 139.37574, 35.33138 ], [ 139.37614, 35.33131 ], [ 139.37642, 35.33127 ] ] } },
{ "type": "Feature", "properties": { "N02_001": "11", "N02_002": "2", "N02_003": "東海道線", "N02_004": "東日本旅客鉄道", "index_right": 880 }, "geometry": { "type": "LineString", "coordinates": [ [ 139.35082, 35.32798 ], [ 139.35248, 35.32827 ], [ 139.35416, 35.32865 ], [ 139.35559, 35.32895 ], [ 139.35674, 35.32915 ], [ 139.35881, 35.32951 ], [ 139.35922, 35.32958 ], [ 139.3598, 35.32968 ], [ 139.36027, 35.32976 ], [ 139.36187, 35.33006 ], [ 139.3622, 35.33014 ], [ 139.36263, 35.33026 ], [ 139.36381, 35.33048 ], [ 139.36718, 35.33111 ], [ 139.36932, 35.33149 ], [ 139.37077, 35.33176 ], [ 139.37129, 35.33184 ], [ 139.37146, 35.33186 ], [ 139.37162, 35.33187 ], [ 139.37181, 35.33188 ], [ 139.37224, 35.33191 ], [ 139.37266, 35.33194 ], [ 139.373, 35.33196 ], [ 139.3732, 35.33196 ], [ 139.37346, 35.33197 ], [ 139.37372, 35.33196 ], [ 139.37395, 35.33194 ], [ 139.37423, 35.33191 ], [ 139.37444, 35.33188 ], [ 139.37467, 35.33184 ], [ 139.37494, 35.33177 ], [ 139.37531, 35.33168 ], [ 139.37579, 35.33151 ], [ 139.3761, 35.3314 ], [ 139.37642, 35.33127 ] ] } }
]
}
