{
"type": "FeatureCollection",
"name": "chigasaki_train_stop",
"crs": { "type": "name", "properties": { "name": "urn:ogc:def:crs:EPSG::6668" } },
"features": [
{ "type": "Feature", "properties": { "N02_001": "11", "N02_002": "2", "N02_003": "相模線", "N02_004": "東日本旅客鉄道", "N02_005": "香川", "N02_005c": "004953", "N02_005g": "004953", "index_right": 880 }, "geometry": { "type": "LineString", "coordinates": [ [ 139.39991, 35.35621 ], [ 139.39975, 35.35699 ] ] } },
{ "type": "Feature", "properties": { "N02_001": "11", "N02_002": "2", "N02_003": "相模線", "N02_004": "東日本旅客鉄道", "N02_005": "茅ヶ崎", "N02_005c": "005023", "N02_005g": "005023", "index_right": 880 }, "geometry": { "type": "LineString", "coordinates": [ [ 139.40606, 35.33035 ], [ 139.40695, 35.33065 ], [ 139.40797, 35.33101 ] ] } },
{ "type": "Feature", "properties": { "N02_001": "11", "N02_002": "2", "N02_003": "相模線", "N02_004": "東日本旅客鉄道", "N02_005": "北茅ヶ崎", "N02_005c": "004995", "N02_005g": "004995", "index_right": 880 }, "geometry": { "type": "LineString", "coordinates": [ [ 139.40773, 35.3392 ], [ 139.40721, 35.34016 ] ] } },
{ "type": "Feature", "properties": { "N02_001": "11", "N02_002": "2", "N02_003": "東海道線", "N02_004": "東日本旅客鉄道", "N02_005": "茅ヶ崎", "N02_005c": "005024", "N02_005g": "005023", "index_right": 880 }, "geometry": { "type": "LineString", "coordinates": [ [ 139.4096, 35.33122 ], [ 139.40696, 35.33026 ], [ 139.40657, 35.33013 ], [ 139.4064, 35.33007 ] ] } }
]
}
