{
"type": "FeatureCollection",
"name": "unserved_areas",
"crs": { "type": "name", "properties": { "name": "urn:ogc:def:crs:EPSG::6668" } },
"features": [
{ "type": "Feature", "properties": { "KEY_CODE": "523973803", "MESH1_ID": "5239", "MESH2_ID": "73", "MESH3_ID": "80", "MESH4_ID": "3", "OBJ_ID": 13923, "Unnamed: 1": 0, "Unnamed: 2": null, "Unnamed: 3": null, "人口（総数）": 576, "人口（総数）　男": 290, "人口（総数）　女": 286, "０〜１４歳人口　総数": "58", "０〜１４歳人口　男": "28", "０〜１４歳人口　女": "30", "１５歳以上人口　総数": "516", "１５歳以上人口　男": "260", "１５歳以上人口　女": "256", "１５〜６４歳人口　総数": "371", "１５〜６４歳人口　男": "197", "１５〜６４歳人口　女": "174", "１８歳以上人口　総数": "500", "１８歳以上人口　男": "249", "１８歳以上人口　女": "251", "２０歳以上人口　総数": "488", "２０歳以上人口　男": "242", "２０歳以上人口　女": "246", "６５歳以上人口　総数": "145", "６５歳以上人口　男": "63", "６５歳以上人口　女": "82", "７５歳以上人口　総数": "74", "７５歳以上人口　男": "30", "７５歳以上人口　女": "44", "８５歳以上人口　総数": "14", "８５歳以上人口　男": "5", "８５歳以上人口　女": "9", "９５歳以上人口　総数": "2", "９５歳以上人口　男": "1", "９５歳以上人口　女": "1", "外国人人口　総数": "3", "外国人人口　男": "3", "外国人人口　女": "0", "世帯総数": 252, "一般世帯数": 252, "１人世帯数　一般世帯数": "85", "２人世帯数　一般世帯数": "75", "３人世帯数　一般世帯数": "45", "４人世帯数　一般世帯数": "34", "５人世帯数　一般世帯数": "8", "６人世帯数　一般世帯数": "5", "７人以上世帯数　一般世帯数": "0", "親族のみの世帯数　一般世帯数": "164", "核家族世帯数　一般世帯数": "148", "核家族以外の世帯数　一般世帯数": "16", "６歳未満世帯員のいる世帯数　一般世帯数": "15", "６５歳以上世帯員のいる世帯数　一般世帯数": "105", "世帯主の年齢が２０〜２９歳の１人世帯数　一般世帯数": "8", "高齢単身世帯数　一般世帯数": "37", "高齢夫婦世帯数　一般世帯数": "22", "index_right": 880 }, "geometry": { "type": "Polygon", "coordinates": [ [ [ 139.38125, 35.320833333333333 ], [ 139.375, 35.320833333333333 ], [ 139.375, 35.325 ], [ 139.38125, 35.325 ], [ 139.38125, 35.320833333333333 ] ] ] } },
{ "type": "Feature", "properties": { "KEY_CODE": "523973901", "MESH1_ID": "5239", "MESH2_ID": "73", "MESH3_ID": "90", "MESH4_ID": "1", "OBJ_ID": 13961, "Unnamed: 1": 0, "Unnamed: 2": null, "Unnamed: 3": null, "人口（総数）": 758, "人口（総数）　男": 339, "人口（総数）　女": 419, "０〜１４歳人口　総数": "60", "０〜１４歳人口　男": "37", "０〜１４歳人口　女": "23", "１５歳以上人口　総数": "698", "１５歳以上人口　男": "302", "１５歳以上人口　女": "396", "１５〜６４歳人口　総数": "393", "１５〜６４歳人口　男": "192", "１５〜６４歳人口　女": "201", "１８歳以上人口　総数": "665", "１８歳以上人口　男": "284", "１８歳以上人口　女": "381", "２０歳以上人口　総数": "649", "２０歳以上人口　男": "277", "２０歳以上人口　女": "372", "６５歳以上人口　総数": "305", "６５歳以上人口　男": "110", "６５歳以上人口　女": "195", "７５歳以上人口　総数": "201", "７５歳以上人口　男": "58", "７５歳以上人口　女": "143", "８５歳以上人口　総数": "97", "８５歳以上人口　男": "20", "８５歳以上人口　女": "77", "９５歳以上人口　総数": "9", "９５歳以上人口　男": "0", "９５歳以上人口　女": "9", "外国人人口　総数": "3", "外国人人口　男": "0", "外国人人口　女": "3", "世帯総数": 248, "一般世帯数": 247, "１人世帯数　一般世帯数": "46", "２人世帯数　一般世帯数": "85", "３人世帯数　一般世帯数": "62", "４人世帯数　一般世帯数": "40", "５人世帯数　一般世帯数": "12", "６人世帯数　一般世帯数": "2", "７人以上世帯数　一般世帯数": "0", "親族のみの世帯数　一般世帯数": "200", "核家族世帯数　一般世帯数": "180", "核家族以外の世帯数　一般世帯数": "20", "６歳未満世帯員のいる世帯数　一般世帯数": "13", "６５歳以上世帯員のいる世帯数　一般世帯数": "120", "世帯主の年齢が２０〜２９歳の１人世帯数　一般世帯数": "1", "高齢単身世帯数　一般世帯数": "20", "高齢夫婦世帯数　一般世帯数": "47", "index_right": 880 }, "geometry": { "type": "Polygon", "coordinates": [ [ [ 139.38125, 35.325 ], [ 139.375, 35.325 ], [ 139.375, 35.329166666666666 ], [ 139.38125, 35.329166666666666 ], [ 139.38125, 35.325 ] ] ] } },
{ "type": "Feature", "properties": { "KEY_CODE": "523973904", "MESH1_ID": "5239", "MESH2_ID": "73", "MESH3_ID": "90", "MESH4_ID": "4", "OBJ_ID": 13964, "Unnamed: 1": 0, "Unnamed: 2": null, "Unnamed: 3": null, "人口（総数）": 1400, "人口（総数）　男": 678, "人口（総数）　女": 722, "０〜１４歳人口　総数": "73", "０〜１４歳人口　男": "39", "０〜１４歳人口　女": "34", "１５歳以上人口　総数": "1325", "１５歳以上人口　男": "637", "１５歳以上人口　女": "688", "１５〜６４歳人口　総数": "1072", "１５〜６４歳人口　男": "519", "１５〜６４歳人口　女": "553", "１８歳以上人口　総数": "1297", "１８歳以上人口　男": "620", "１８歳以上人口　女": "677", "２０歳以上人口　総数": "1268", "２０歳以上人口　男": "606", "２０歳以上人口　女": "662", "６５歳以上人口　総数": "253", "６５歳以上人口　男": "118", "６５歳以上人口　女": "135", "７５歳以上人口　総数": "116", "７５歳以上人口　男": "45", "７５歳以上人口　女": "71", "８５歳以上人口　総数": "33", "８５歳以上人口　男": "13", "８５歳以上人口　女": "20", "９５歳以上人口　総数": "1", "９５歳以上人口　男": "1", "９５歳以上人口　女": "0", "外国人人口　総数": "6", "外国人人口　男": "2", "外国人人口　女": "4", "世帯総数": 594, "一般世帯数": 593, "１人世帯数　一般世帯数": "144", "２人世帯数　一般世帯数": "205", "３人世帯数　一般世帯数": "152", "４人世帯数　一般世帯数": "76", "５人世帯数　一般世帯数": "12", "６人世帯数　一般世帯数": "4", "７人以上世帯数　一般世帯数": "0", "親族のみの世帯数　一般世帯数": "445", "核家族世帯数　一般世帯数": "425", "核家族以外の世帯数　一般世帯数": "20", "６歳未満世帯員のいる世帯数　一般世帯数": "21", "６５歳以上世帯員のいる世帯数　一般世帯数": "180", "世帯主の年齢が２０〜２９歳の１人世帯数　一般世帯数": "9", "高齢単身世帯数　一般世帯数": "43", "高齢夫婦世帯数　一般世帯数": "56", "index_right": 880 }, "geometry": { "type": "Polygon", "coordinates": [ [ [ 139.3875, 35.329166666666666 ], [ 139.38125, 35.329166666666666 ], [ 139.38125, 35.333333333333329 ], [ 139.3875, 35.333333333333329 ], [ 139.3875, 35.329166666666666 ] ] ] } },
{ "type": "Feature", "properties": { "KEY_CODE": "533902094", "MESH1_ID": "5339", "MESH2_ID": "02", "MESH3_ID": "09", "MESH4_ID": "4", "OBJ_ID": 840, "Unnamed: 1": 0, "Unnamed: 2": null, "Unnamed: 3": null, "人口（総数）": 944, "人口（総数）　男": 498, "人口（総数）　女": 446, "０〜１４歳人口　総数": "130", "０〜１４歳人口　男": "71", "０〜１４歳人口　女": "59", "１５歳以上人口　総数": "803", "１５歳以上人口　男": "420", "１５歳以上人口　女": "383", "１５〜６４歳人口　総数": "576", "１５〜６４歳人口　男": "316", "１５〜６４歳人口　女": "260", "１８歳以上人口　総数": "785", "１８歳以上人口　男": "410", "１８歳以上人口　女": "375", "２０歳以上人口　総数": "772", "２０歳以上人口　男": "403", "２０歳以上人口　女": "369", "６５歳以上人口　総数": "227", "６５歳以上人口　男": "104", "６５歳以上人口　女": "123", "７５歳以上人口　総数": "86", "７５歳以上人口　男": "37", "７５歳以上人口　女": "49", "８５歳以上人口　総数": "21", "８５歳以上人口　男": "6", "８５歳以上人口　女": "15", "９５歳以上人口　総数": "3", "９５歳以上人口　男": "1", "９５歳以上人口　女": "2", "外国人人口　総数": "7", "外国人人口　男": "2", "外国人人口　女": "5", "世帯総数": 408, "一般世帯数": 407, "１人世帯数　一般世帯数": "136", "２人世帯数　一般世帯数": "113", "３人世帯数　一般世帯数": "87", "４人世帯数　一般世帯数": "45", "５人世帯数　一般世帯数": "20", "６人世帯数　一般世帯数": "4", "７人以上世帯数　一般世帯数": "2", "親族のみの世帯数　一般世帯数": "268", "核家族世帯数　一般世帯数": "245", "核家族以外の世帯数　一般世帯数": "23", "６歳未満世帯員のいる世帯数　一般世帯数": "42", "６５歳以上世帯員のいる世帯数　一般世帯数": "147", "世帯主の年齢が２０〜２９歳の１人世帯数　一般世帯数": "36", "高齢単身世帯数　一般世帯数": "24", "高齢夫婦世帯数　一般世帯数": "46", "index_right": 880 }, "geometry": { "type": "Polygon", "coordinates": [ [ [ 139.375, 35.3375 ], [ 139.36875, 35.3375 ], [ 139.36875, 35.341666666666661 ], [ 139.375, 35.341666666666661 ], [ 139.375, 35.3375 ] ] ] } },
{ "type": "Feature", "properties": { "KEY_CODE": "533902192", "MESH1_ID": "5339", "MESH2_ID": "02", "MESH3_ID": "19", "MESH4_ID": "2", "OBJ_ID": 878, "Unnamed: 1": 0, "Unnamed: 2": null, "Unnamed: 3": null, "人口（総数）": 1239, "人口（総数）　男": 632, "人口（総数）　女": 607, "０〜１４歳人口　総数": "167", "０〜１４歳人口　男": "82", "０〜１４歳人口　女": "85", "１５歳以上人口　総数": "1066", "１５歳以上人口　男": "546", "１５歳以上人口　女": "520", "１５〜６４歳人口　総数": "803", "１５〜６４歳人口　男": "419", "１５〜６４歳人口　女": "384", "１８歳以上人口　総数": "1001", "１８歳以上人口　男": "515", "１８歳以上人口　女": "486", "２０歳以上人口　総数": "972", "２０歳以上人口　男": "502", "２０歳以上人口　女": "470", "６５歳以上人口　総数": "263", "６５歳以上人口　男": "127", "６５歳以上人口　女": "136", "７５歳以上人口　総数": "86", "７５歳以上人口　男": "39", "７５歳以上人口　女": "47", "８５歳以上人口　総数": "14", "８５歳以上人口　男": "5", "８５歳以上人口　女": "9", "９５歳以上人口　総数": "1", "９５歳以上人口　男": "0", "９５歳以上人口　女": "1", "外国人人口　総数": "19", "外国人人口　男": "8", "外国人人口　女": "11", "世帯総数": 490, "一般世帯数": 490, "１人世帯数　一般世帯数": "125", "２人世帯数　一般世帯数": "144", "３人世帯数　一般世帯数": "100", "４人世帯数　一般世帯数": "87", "５人世帯数　一般世帯数": "26", "６人世帯数　一般世帯数": "8", "７人以上世帯数　一般世帯数": "0", "親族のみの世帯数　一般世帯数": "357", "核家族世帯数　一般世帯数": "330", "核家族以外の世帯数　一般世帯数": "27", "６歳未満世帯員のいる世帯数　一般世帯数": "29", "６５歳以上世帯員のいる世帯数　一般世帯数": "171", "世帯主の年齢が２０〜２９歳の１人世帯数　一般世帯数": "14", "高齢単身世帯数　一般世帯数": "31", "高齢夫婦世帯数　一般世帯数": "59", "index_right": 880 }, "geometry": { "type": "Polygon", "coordinates": [ [ [ 139.375, 35.341666666666661 ], [ 139.36875, 35.341666666666661 ], [ 139.36875, 35.345833333333331 ], [ 139.375, 35.345833333333331 ], [ 139.375, 35.341666666666661 ] ] ] } },
{ "type": "Feature", "properties": { "KEY_CODE": "533903052", "MESH1_ID": "5339", "MESH2_ID": "03", "MESH3_ID": "05", "MESH4_ID": "2", "OBJ_ID": 1222, "Unnamed: 1": 0, "Unnamed: 2": null, "Unnamed: 3": null, "人口（総数）": 2883, "人口（総数）　男": 1418, "人口（総数）　女": 1465, "０〜１４歳人口　総数": "324", "０〜１４歳人口　男": "183", "０〜１４歳人口　女": "141", "１５歳以上人口　総数": "2490", "１５歳以上人口　男": "1196", "１５歳以上人口　女": "1294", "１５〜６４歳人口　総数": "1868", "１５〜６４歳人口　男": "913", "１５〜６４歳人口　女": "955", "１８歳以上人口　総数": "2439", "１８歳以上人口　男": "1167", "１８歳以上人口　女": "1272", "２０歳以上人口　総数": "2387", "２０歳以上人口　男": "1144", "２０歳以上人口　女": "1243", "６５歳以上人口　総数": "622", "６５歳以上人口　男": "283", "６５歳以上人口　女": "339", "７５歳以上人口　総数": "312", "７５歳以上人口　男": "128", "７５歳以上人口　女": "184", "８５歳以上人口　総数": "84", "８５歳以上人口　男": "31", "８５歳以上人口　女": "53", "９５歳以上人口　総数": "7", "９５歳以上人口　男": "0", "９５歳以上人口　女": "7", "外国人人口　総数": "25", "外国人人口　男": "13", "外国人人口　女": "12", "世帯総数": 1577, "一般世帯数": 1577, "１人世帯数　一般世帯数": "869", "２人世帯数　一般世帯数": "326", "３人世帯数　一般世帯数": "210", "４人世帯数　一般世帯数": "134", "５人世帯数　一般世帯数": "32", "６人世帯数　一般世帯数": "6", "７人以上世帯数　一般世帯数": "0", "親族のみの世帯数　一般世帯数": "701", "核家族世帯数　一般世帯数": "662", "核家族以外の世帯数　一般世帯数": "39", "６歳未満世帯員のいる世帯数　一般世帯数": "114", "６５歳以上世帯員のいる世帯数　一般世帯数": "437", "世帯主の年齢が２０〜２９歳の１人世帯数　一般世帯数": "207", "高齢単身世帯数　一般世帯数": "160", "高齢夫婦世帯数　一般世帯数": "132", "index_right": 880 }, "geometry": { "type": "Polygon", "coordinates": [ [ [ 139.45, 35.333333333333329 ], [ 139.44375, 35.333333333333329 ], [ 139.44375, 35.3375 ], [ 139.45, 35.3375 ], [ 139.45, 35.333333333333329 ] ] ] } },
{ "type": "Feature", "properties": { "KEY_CODE": "533903053", "MESH1_ID": "5339", "MESH2_ID": "03", "MESH3_ID": "05", "MESH4_ID": "3", "OBJ_ID": 1223, "Unnamed: 1": 0, "Unnamed: 2": null, "Unnamed: 3": null, "人口（総数）": 3871, "人口（総数）　男": 1843, "人口（総数）　女": 2028, "０〜１４歳人口　総数": "581", "０〜１４歳人口　男": "286", "０〜１４歳人口　女": "295", "１５歳以上人口　総数": "3217", "１５歳以上人口　男": "1512", "１５歳以上人口　女": "1705", "１５〜６４歳人口　総数": "2409", "１５〜６４歳人口　男": "1167", "１５〜６４歳人口　女": "1242", "１８歳以上人口　総数": "3129", "１８歳以上人口　男": "1474", "１８歳以上人口　女": "1655", "２０歳以上人口　総数": "3066", "２０歳以上人口　男": "1441", "２０歳以上人口　女": "1625", "６５歳以上人口　総数": "808", "６５歳以上人口　男": "345", "６５歳以上人口　女": "463", "７５歳以上人口　総数": "424", "７５歳以上人口　男": "168", "７５歳以上人口　女": "256", "８５歳以上人口　総数": "159", "８５歳以上人口　男": "47", "８５歳以上人口　女": "112", "９５歳以上人口　総数": "21", "９５歳以上人口　男": "5", "９５歳以上人口　女": "16", "外国人人口　総数": "22", "外国人人口　男": "11", "外国人人口　女": "11", "世帯総数": 1693, "一般世帯数": 1681, "１人世帯数　一般世帯数": "578", "２人世帯数　一般世帯数": "452", "３人世帯数　一般世帯数": "341", "４人世帯数　一般世帯数": "263", "５人世帯数　一般世帯数": "38", "６人世帯数　一般世帯数": "7", "７人以上世帯数　一般世帯数": "2", "親族のみの世帯数　一般世帯数": "1091", "核家族世帯数　一般世帯数": "1049", "核家族以外の世帯数　一般世帯数": "42", "６歳未満世帯員のいる世帯数　一般世帯数": "227", "６５歳以上世帯員のいる世帯数　一般世帯数": "532", "世帯主の年齢が２０〜２９歳の１人世帯数　一般世帯数": "81", "高齢単身世帯数　一般世帯数": "195", "高齢夫婦世帯数　一般世帯数": "153", "index_right": 880 }, "geometry": { "type": "Polygon", "coordinates": [ [ [ 139.44375, 35.3375 ], [ 139.4375, 35.3375 ], [ 139.4375, 35.341666666666661 ], [ 139.44375, 35.341666666666661 ], [ 139.44375, 35.3375 ] ] ] } },
{ "type": "Feature", "properties": { "KEY_CODE": "533903054", "MESH1_ID": "5339", "MESH2_ID": "03", "MESH3_ID": "05", "MESH4_ID": "4", "OBJ_ID": 1224, "Unnamed: 1": 0, "Unnamed: 2": null, "Unnamed: 3": null, "人口（総数）": 2083, "人口（総数）　男": 981, "人口（総数）　女": 1102, "０〜１４歳人口　総数": "329", "０〜１４歳人口　男": "176", "０〜１４歳人口　女": "153", "１５歳以上人口　総数": "1734", "１５歳以上人口　男": "792", "１５歳以上人口　女": "942", "１５〜６４歳人口　総数": "1169", "１５〜６４歳人口　男": "536", "１５〜６４歳人口　女": "633", "１８歳以上人口　総数": "1693", "１８歳以上人口　男": "780", "１８歳以上人口　女": "913", "２０歳以上人口　総数": "1673", "２０歳以上人口　男": "772", "２０歳以上人口　女": "901", "６５歳以上人口　総数": "565", "６５歳以上人口　男": "256", "６５歳以上人口　女": "309", "７５歳以上人口　総数": "256", "７５歳以上人口　男": "112", "７５歳以上人口　女": "144", "８５歳以上人口　総数": "72", "８５歳以上人口　男": "28", "８５歳以上人口　女": "44", "９５歳以上人口　総数": "2", "９５歳以上人口　男": "0", "９５歳以上人口　女": "2", "外国人人口　総数": "19", "外国人人口　男": "8", "外国人人口　女": "11", "世帯総数": 929, "一般世帯数": 928, "１人世帯数　一般世帯数": "266", "２人世帯数　一般世帯数": "345", "３人世帯数　一般世帯数": "164", "４人世帯数　一般世帯数": "136", "５人世帯数　一般世帯数": "17", "６人世帯数　一般世帯数": "0", "７人以上世帯数　一般世帯数": "0", "親族のみの世帯数　一般世帯数": "660", "核家族世帯数　一般世帯数": "641", "核家族以外の世帯数　一般世帯数": "19", "６歳未満世帯員のいる世帯数　一般世帯数": "94", "６５歳以上世帯員のいる世帯数　一般世帯数": "376", "世帯主の年齢が２０〜２９歳の１人世帯数　一般世帯数": "20", "高齢単身世帯数　一般世帯数": "113", "高齢夫婦世帯数　一般世帯数": "152", "index_right": 880 }, "geometry": { "type": "Polygon", "coordinates": [ [ [ 139.45, 35.3375 ], [ 139.44375, 35.3375 ], [ 139.44375, 35.341666666666661 ], [ 139.45, 35.341666666666661 ], [ 139.45, 35.3375 ] ] ] } },
{ "type": "Feature", "properties": { "KEY_CODE": "533903121", "MESH1_ID": "5339", "MESH2_ID": "03", "MESH3_ID": "12", "MESH4_ID": "1", "OBJ_ID": 1249, "Unnamed: 1": 0, "Unnamed: 2": null, "Unnamed: 3": null, "人口（総数）": 1431, "人口（総数）　男": 687, "人口（総数）　女": 744, "０〜１４歳人口　総数": "185", "０〜１４歳人口　男": "106", "０〜１４歳人口　女": "79", "１５歳以上人口　総数": "1236", "１５歳以上人口　男": "575", "１５歳以上人口　女": "661", "１５〜６４歳人口　総数": "847", "１５〜６４歳人口　男": "423", "１５〜６４歳人口　女": "424", "１８歳以上人口　総数": "1184", "１８歳以上人口　男": "556", "１８歳以上人口　女": "628", "２０歳以上人口　総数": "1152", "２０歳以上人口　男": "545", "２０歳以上人口　女": "607", "６５歳以上人口　総数": "389", "６５歳以上人口　男": "152", "６５歳以上人口　女": "237", "７５歳以上人口　総数": "197", "７５歳以上人口　男": "70", "７５歳以上人口　女": "127", "８５歳以上人口　総数": "88", "８５歳以上人口　男": "21", "８５歳以上人口　女": "67", "９５歳以上人口　総数": "16", "９５歳以上人口　男": "2", "９５歳以上人口　女": "14", "外国人人口　総数": "11", "外国人人口　男": "6", "外国人人口　女": "5", "世帯総数": 559, "一般世帯数": 557, "１人世帯数　一般世帯数": "149", "２人世帯数　一般世帯数": "165", "３人世帯数　一般世帯数": "114", "４人世帯数　一般世帯数": "91", "５人世帯数　一般世帯数": "30", "６人世帯数　一般世帯数": "6", "７人以上世帯数　一般世帯数": "2", "親族のみの世帯数　一般世帯数": "403", "核家族世帯数　一般世帯数": "370", "核家族以外の世帯数　一般世帯数": "33", "６歳未満世帯員のいる世帯数　一般世帯数": "49", "６５歳以上世帯員のいる世帯数　一般世帯数": "229", "世帯主の年齢が２０〜２９歳の１人世帯数　一般世帯数": "17", "高齢単身世帯数　一般世帯数": "57", "高齢夫婦世帯数　一般世帯数": "70", "index_right": 880 }, "geometry": { "type": "Polygon", "coordinates": [ [ [ 139.40625, 35.341666666666661 ], [ 139.4, 35.341666666666661 ], [ 139.4, 35.345833333333331 ], [ 139.40625, 35.345833333333331 ], [ 139.40625, 35.341666666666661 ] ] ] } },
{ "type": "Feature", "properties": { "KEY_CODE": "533903151", "MESH1_ID": "5339", "MESH2_ID": "03", "MESH3_ID": "15", "MESH4_ID": "1", "OBJ_ID": 1261, "Unnamed: 1": 0, "Unnamed: 2": null, "Unnamed: 3": null, "人口（総数）": 3795, "人口（総数）　男": 1846, "人口（総数）　女": 1949, "０〜１４歳人口　総数": "434", "０〜１４歳人口　男": "224", "０〜１４歳人口　女": "210", "１５歳以上人口　総数": "3348", "１５歳以上人口　男": "1615", "１５歳以上人口　女": "1733", "１５〜６４歳人口　総数": "2559", "１５〜６４歳人口　男": "1254", "１５〜６４歳人口　女": "1305", "１８歳以上人口　総数": "3225", "１８歳以上人口　男": "1550", "１８歳以上人口　女": "1675", "２０歳以上人口　総数": "3144", "２０歳以上人口　男": "1514", "２０歳以上人口　女": "1630", "６５歳以上人口　総数": "789", "６５歳以上人口　男": "361", "６５歳以上人口　女": "428", "７５歳以上人口　総数": "382", "７５歳以上人口　男": "163", "７５歳以上人口　女": "219", "８５歳以上人口　総数": "114", "８５歳以上人口　男": "40", "８５歳以上人口　女": "74", "９５歳以上人口　総数": "4", "９５歳以上人口　男": "0", "９５歳以上人口　女": "4", "外国人人口　総数": "38", "外国人人口　男": "19", "外国人人口　女": "19", "世帯総数": 1703, "一般世帯数": 1698, "１人世帯数　一般世帯数": "597", "２人世帯数　一般世帯数": "490", "３人世帯数　一般世帯数": "310", "４人世帯数　一般世帯数": "248", "５人世帯数　一般世帯数": "42", "６人世帯数　一般世帯数": "11", "７人以上世帯数　一般世帯数": "0", "親族のみの世帯数　一般世帯数": "1093", "核家族世帯数　一般世帯数": "1025", "核家族以外の世帯数　一般世帯数": "68", "６歳未満世帯員のいる世帯数　一般世帯数": "128", "６５歳以上世帯員のいる世帯数　一般世帯数": "518", "世帯主の年齢が２０〜２９歳の１人世帯数　一般世帯数": "208", "高齢単身世帯数　一般世帯数": "123", "高齢夫婦世帯数　一般世帯数": "172", "index_right": 880 }, "geometry": { "type": "Polygon", "coordinates": [ [ [ 139.44375, 35.341666666666661 ], [ 139.4375, 35.341666666666661 ], [ 139.4375, 35.345833333333331 ], [ 139.44375, 35.345833333333331 ], [ 139.44375, 35.341666666666661 ] ] ] } },
{ "type": "Feature", "properties": { "KEY_CODE": "533903152", "MESH1_ID": "5339", "MESH2_ID": "03", "MESH3_ID": "15", "MESH4_ID": "2", "OBJ_ID": 1262, "Unnamed: 1": 0, "Unnamed: 2": null, "Unnamed: 3": null, "人口（総数）": 2787, "人口（総数）　男": 1324, "人口（総数）　女": 1463, "０〜１４歳人口　総数": "346", "０〜１４歳人口　男": "166", "０〜１４歳人口　女": "180", "１５歳以上人口　総数": "2387", "１５歳以上人口　男": "1127", "１５歳以上人口　女": "1260", "１５〜６４歳人口　総数": "1799", "１５〜６４歳人口　男": "870", "１５〜６４歳人口　女": "929", "１８歳以上人口　総数": "2320", "１８歳以上人口　男": "1086", "１８歳以上人口　女": "1234", "２０歳以上人口　総数": "2282", "２０歳以上人口　男": "1065", "２０歳以上人口　女": "1217", "６５歳以上人口　総数": "588", "６５歳以上人口　男": "257", "６５歳以上人口　女": "331", "７５歳以上人口　総数": "293", "７５歳以上人口　男": "112", "７５歳以上人口　女": "181", "８５歳以上人口　総数": "83", "８５歳以上人口　男": "31", "８５歳以上人口　女": "52", "９５歳以上人口　総数": "7", "９５歳以上人口　男": "2", "９５歳以上人口　女": "5", "外国人人口　総数": "15", "外国人人口　男": "6", "外国人人口　女": "9", "世帯総数": 1293, "一般世帯数": 1292, "１人世帯数　一般世帯数": "537", "２人世帯数　一般世帯数": "326", "３人世帯数　一般世帯数": "221", "４人世帯数　一般世帯数": "165", "５人世帯数　一般世帯数": "35", "６人世帯数　一般世帯数": "6", "７人以上世帯数　一般世帯数": "2", "親族のみの世帯数　一般世帯数": "739", "核家族世帯数　一般世帯数": "692", "核家族以外の世帯数　一般世帯数": "47", "６歳未満世帯員のいる世帯数　一般世帯数": "125", "６５歳以上世帯員のいる世帯数　一般世帯数": "375", "世帯主の年齢が２０〜２９歳の１人世帯数　一般世帯数": "107", "高齢単身世帯数　一般世帯数": "107", "高齢夫婦世帯数　一般世帯数": "118", "index_right": 880 }, "geometry": { "type": "Polygon", "coordinates": [ [ [ 139.45, 35.341666666666661 ], [ 139.44375, 35.341666666666661 ], [ 139.44375, 35.345833333333331 ], [ 139.45, 35.345833333333331 ], [ 139.45, 35.341666666666661 ] ] ] } },
{ "type": "Feature", "properties": { "KEY_CODE": "533903221", "MESH1_ID": "5339", "MESH2_ID": "03", "MESH3_ID": "22", "MESH4_ID": "1", "OBJ_ID": 1289, "Unnamed: 1": 0, "Unnamed: 2": null, "Unnamed: 3": null, "人口（総数）": 2759, "人口（総数）　男": 1322, "人口（総数）　女": 1437, "０〜１４歳人口　総数": "349", "０〜１４歳人口　男": "166", "０〜１４歳人口　女": "183", "１５歳以上人口　総数": "2392", "１５歳以上人口　男": "1143", "１５歳以上人口　女": "1249", "１５〜６４歳人口　総数": "1551", "１５〜６４歳人口　男": "763", "１５〜６４歳人口　女": "788", "１８歳以上人口　総数": "2310", "１８歳以上人口　男": "1099", "１８歳以上人口　女": "1211", "２０歳以上人口　総数": "2259", "２０歳以上人口　男": "1075", "２０歳以上人口　女": "1184", "６５歳以上人口　総数": "841", "６５歳以上人口　男": "380", "６５歳以上人口　女": "461", "７５歳以上人口　総数": "446", "７５歳以上人口　男": "198", "７５歳以上人口　女": "248", "８５歳以上人口　総数": "104", "８５歳以上人口　男": "44", "８５歳以上人口　女": "60", "９５歳以上人口　総数": "6", "９５歳以上人口　男": "0", "９５歳以上人口　女": "6", "外国人人口　総数": "9", "外国人人口　男": "3", "外国人人口　女": "6", "世帯総数": 1131, "一般世帯数": 1130, "１人世帯数　一般世帯数": "271", "２人世帯数　一般世帯数": "398", "３人世帯数　一般世帯数": "227", "４人世帯数　一般世帯数": "178", "５人世帯数　一般世帯数": "40", "６人世帯数　一般世帯数": "15", "７人以上世帯数　一般世帯数": "1", "親族のみの世帯数　一般世帯数": "855", "核家族世帯数　一般世帯数": "797", "核家族以外の世帯数　一般世帯数": "58", "６歳未満世帯員のいる世帯数　一般世帯数": "95", "６５歳以上世帯員のいる世帯数　一般世帯数": "554", "世帯主の年齢が２０〜２９歳の１人世帯数　一般世帯数": "18", "高齢単身世帯数　一般世帯数": "149", "高齢夫婦世帯数　一般世帯数": "194", "index_right": 880 }, "geometry": { "type": "Polygon", "coordinates": [ [ [ 139.40625, 35.35 ], [ 139.4, 35.35 ], [ 139.4, 35.354166666666664 ], [ 139.40625, 35.354166666666664 ], [ 139.40625, 35.35 ] ] ] } },
{ "type": "Feature", "properties": { "KEY_CODE": "533903312", "MESH1_ID": "5339", "MESH2_ID": "03", "MESH3_ID": "31", "MESH4_ID": "2", "OBJ_ID": 1326, "Unnamed: 1": 0, "Unnamed: 2": null, "Unnamed: 3": null, "人口（総数）": 1958, "人口（総数）　男": 971, "人口（総数）　女": 987, "０〜１４歳人口　総数": "256", "０〜１４歳人口　男": "124", "０〜１４歳人口　女": "132", "１５歳以上人口　総数": "1687", "１５歳以上人口　男": "840", "１５歳以上人口　女": "847", "１５〜６４歳人口　総数": "1227", "１５〜６４歳人口　男": "637", "１５〜６４歳人口　女": "590", "１８歳以上人口　総数": "1624", "１８歳以上人口　男": "810", "１８歳以上人口　女": "814", "２０歳以上人口　総数": "1594", "２０歳以上人口　男": "795", "２０歳以上人口　女": "799", "６５歳以上人口　総数": "460", "６５歳以上人口　男": "203", "６５歳以上人口　女": "257", "７５歳以上人口　総数": "249", "７５歳以上人口　男": "102", "７５歳以上人口　女": "147", "８５歳以上人口　総数": "85", "８５歳以上人口　男": "32", "８５歳以上人口　女": "53", "９５歳以上人口　総数": "11", "９５歳以上人口　男": "2", "９５歳以上人口　女": "9", "外国人人口　総数": "18", "外国人人口　男": "7", "外国人人口　女": "11", "世帯総数": 767, "一般世帯数": 763, "１人世帯数　一般世帯数": "191", "２人世帯数　一般世帯数": "222", "３人世帯数　一般世帯数": "175", "４人世帯数　一般世帯数": "139", "５人世帯数　一般世帯数": "24", "６人世帯数　一般世帯数": "11", "７人以上世帯数　一般世帯数": "1", "親族のみの世帯数　一般世帯数": "560", "核家族世帯数　一般世帯数": "521", "核家族以外の世帯数　一般世帯数": "39", "６歳未満世帯員のいる世帯数　一般世帯数": "78", "６５歳以上世帯員のいる世帯数　一般世帯数": "280", "世帯主の年齢が２０〜２９歳の１人世帯数　一般世帯数": "21", "高齢単身世帯数　一般世帯数": "58", "高齢夫婦世帯数　一般世帯数": "90", "index_right": 880 }, "geometry": { "type": "Polygon", "coordinates": [ [ [ 139.4, 35.358333333333334 ], [ 139.39375, 35.358333333333334 ], [ 139.39375, 35.3625 ], [ 139.4, 35.3625 ], [ 139.4, 35.358333333333334 ] ] ] } },
{ "type": "Feature", "properties": { "KEY_CODE": "533903322", "MESH1_ID": "5339", "MESH2_ID": "03", "MESH3_ID": "32", "MESH4_ID": "2", "OBJ_ID": 1330, "Unnamed: 1": 0, "Unnamed: 2": null, "Unnamed: 3": null, "人口（総数）": 509, "人口（総数）　男": 268, "人口（総数）　女": 241, "０〜１４歳人口　総数": "65", "０〜１４歳人口　男": "40", "０〜１４歳人口　女": "25", "１５歳以上人口　総数": "442", "１５歳以上人口　男": "227", "１５歳以上人口　女": "215", "１５〜６４歳人口　総数": "287", "１５〜６４歳人口　男": "153", "１５〜６４歳人口　女": "134", "１８歳以上人口　総数": "413", "１８歳以上人口　男": "213", "１８歳以上人口　女": "200", "２０歳以上人口　総数": "407", "２０歳以上人口　男": "208", "２０歳以上人口　女": "199", "６５歳以上人口　総数": "155", "６５歳以上人口　男": "74", "６５歳以上人口　女": "81", "７５歳以上人口　総数": "90", "７５歳以上人口　男": "42", "７５歳以上人口　女": "48", "８５歳以上人口　総数": "17", "８５歳以上人口　男": "8", "８５歳以上人口　女": "9", "９５歳以上人口　総数": "0", "９５歳以上人口　男": "0", "９５歳以上人口　女": "0", "外国人人口　総数": "2", "外国人人口　男": "1", "外国人人口　女": "1", "世帯総数": 182, "一般世帯数": 182, "１人世帯数　一般世帯数": "31", "２人世帯数　一般世帯数": "58", "３人世帯数　一般世帯数": "33", "４人世帯数　一般世帯数": "45", "５人世帯数　一般世帯数": "9", "６人世帯数　一般世帯数": "5", "７人以上世帯数　一般世帯数": "1", "親族のみの世帯数　一般世帯数": "151", "核家族世帯数　一般世帯数": "133", "核家族以外の世帯数　一般世帯数": "18", "６歳未満世帯員のいる世帯数　一般世帯数": "15", "６５歳以上世帯員のいる世帯数　一般世帯数": "93", "世帯主の年齢が２０〜２９歳の１人世帯数　一般世帯数": "2", "高齢単身世帯数　一般世帯数": "16", "高齢夫婦世帯数　一般世帯数": "39", "index_right": 880 }, "geometry": { "type": "Polygon", "coordinates": [ [ [ 139.4125, 35.358333333333334 ], [ 139.40625, 35.358333333333334 ], [ 139.40625, 35.3625 ], [ 139.4125, 35.3625 ], [ 139.4125, 35.358333333333334 ] ] ] } },
{ "type": "Feature", "properties": { "KEY_CODE": "533903353", "MESH1_ID": "5339", "MESH2_ID": "03", "MESH3_ID": "35", "MESH4_ID": "3", "OBJ_ID": 1343, "Unnamed: 1": 0, "Unnamed: 2": null, "Unnamed: 3": null, "人口（総数）": 2093, "人口（総数）　男": 1047, "人口（総数）　女": 1046, "０〜１４歳人口　総数": "369", "０〜１４歳人口　男": "185", "０〜１４歳人口　女": "184", "１５歳以上人口　総数": "1708", "１５歳以上人口　男": "851", "１５歳以上人口　女": "857", "１５〜６４歳人口　総数": "1172", "１５〜６４歳人口　男": "595", "１５〜６４歳人口　女": "577", "１８歳以上人口　総数": "1638", "１８歳以上人口　男": "817", "１８歳以上人口　女": "821", "２０歳以上人口　総数": "1599", "２０歳以上人口　男": "794", "２０歳以上人口　女": "805", "６５歳以上人口　総数": "536", "６５歳以上人口　男": "256", "６５歳以上人口　女": "280", "７５歳以上人口　総数": "260", "７５歳以上人口　男": "133", "７５歳以上人口　女": "127", "８５歳以上人口　総数": "56", "８５歳以上人口　男": "30", "８５歳以上人口　女": "26", "９５歳以上人口　総数": "4", "９５歳以上人口　男": "1", "９５歳以上人口　女": "3", "外国人人口　総数": "26", "外国人人口　男": "16", "外国人人口　女": "10", "世帯総数": 832, "一般世帯数": 832, "１人世帯数　一般世帯数": "207", "２人世帯数　一般世帯数": "261", "３人世帯数　一般世帯数": "172", "４人世帯数　一般世帯数": "136", "５人世帯数　一般世帯数": "37", "６人世帯数　一般世帯数": "15", "７人以上世帯数　一般世帯数": "4", "親族のみの世帯数　一般世帯数": "618", "核家族世帯数　一般世帯数": "583", "核家族以外の世帯数　一般世帯数": "35", "６歳未満世帯員のいる世帯数　一般世帯数": "86", "６５歳以上世帯員のいる世帯数　一般世帯数": "336", "世帯主の年齢が２０〜２９歳の１人世帯数　一般世帯数": "26", "高齢単身世帯数　一般世帯数": "69", "高齢夫婦世帯数　一般世帯数": "142", "index_right": 880 }, "geometry": { "type": "Polygon", "coordinates": [ [ [ 139.44375, 35.3625 ], [ 139.4375, 35.3625 ], [ 139.4375, 35.366666666666667 ], [ 139.44375, 35.366666666666667 ], [ 139.44375, 35.3625 ] ] ] } },
{ "type": "Feature", "properties": { "KEY_CODE": "533903412", "MESH1_ID": "5339", "MESH2_ID": "03", "MESH3_ID": "41", "MESH4_ID": "2", "OBJ_ID": 1366, "Unnamed: 1": 0, "Unnamed: 2": null, "Unnamed: 3": null, "人口（総数）": 1065, "人口（総数）　男": 526, "人口（総数）　女": 539, "０〜１４歳人口　総数": "124", "０〜１４歳人口　男": "59", "０〜１４歳人口　女": "65", "１５歳以上人口　総数": "935", "１５歳以上人口　男": "462", "１５歳以上人口　女": "473", "１５〜６４歳人口　総数": "642", "１５〜６４歳人口　男": "327", "１５〜６４歳人口　女": "315", "１８歳以上人口　総数": "901", "１８歳以上人口　男": "447", "１８歳以上人口　女": "454", "２０歳以上人口　総数": "873", "２０歳以上人口　男": "429", "２０歳以上人口　女": "444", "６５歳以上人口　総数": "293", "６５歳以上人口　男": "135", "６５歳以上人口　女": "158", "７５歳以上人口　総数": "148", "７５歳以上人口　男": "64", "７５歳以上人口　女": "84", "８５歳以上人口　総数": "13", "８５歳以上人口　男": "5", "８５歳以上人口　女": "8", "９５歳以上人口　総数": "0", "９５歳以上人口　男": "0", "９５歳以上人口　女": "0", "外国人人口　総数": "9", "外国人人口　男": "3", "外国人人口　女": "6", "世帯総数": 434, "一般世帯数": 434, "１人世帯数　一般世帯数": "118", "２人世帯数　一般世帯数": "127", "３人世帯数　一般世帯数": "99", "４人世帯数　一般世帯数": "62", "５人世帯数　一般世帯数": "22", "６人世帯数　一般世帯数": "4", "７人以上世帯数　一般世帯数": "2", "親族のみの世帯数　一般世帯数": "311", "核家族世帯数　一般世帯数": "288", "核家族以外の世帯数　一般世帯数": "23", "６歳未満世帯員のいる世帯数　一般世帯数": "36", "６５歳以上世帯員のいる世帯数　一般世帯数": "194", "世帯主の年齢が２０〜２９歳の１人世帯数　一般世帯数": "12", "高齢単身世帯数　一般世帯数": "56", "高齢夫婦世帯数　一般世帯数": "64", "index_right": 880 }, "geometry": { "type": "Polygon", "coordinates": [ [ [ 139.4, 35.366666666666667 ], [ 139.39375, 35.366666666666667 ], [ 139.39375, 35.37083333333333 ], [ 139.4, 35.37083333333333 ], [ 139.4, 35.366666666666667 ] ] ] } },
{ "type": "Feature", "properties": { "KEY_CODE": "533903423", "MESH1_ID": "5339", "MESH2_ID": "03", "MESH3_ID": "42", "MESH4_ID": "3", "OBJ_ID": 1371, "Unnamed: 1": 0, "Unnamed: 2": null, "Unnamed: 3": null, "人口（総数）": 669, "人口（総数）　男": 335, "人口（総数）　女": 334, "０〜１４歳人口　総数": "95", "０〜１４歳人口　男": "57", "０〜１４歳人口　女": "38", "１５歳以上人口　総数": "574", "１５歳以上人口　男": "278", "１５歳以上人口　女": "296", "１５〜６４歳人口　総数": "359", "１５〜６４歳人口　男": "179", "１５〜６４歳人口　女": "180", "１８歳以上人口　総数": "551", "１８歳以上人口　男": "269", "１８歳以上人口　女": "282", "２０歳以上人口　総数": "542", "２０歳以上人口　男": "266", "２０歳以上人口　女": "276", "６５歳以上人口　総数": "215", "６５歳以上人口　男": "99", "６５歳以上人口　女": "116", "７５歳以上人口　総数": "98", "７５歳以上人口　男": "51", "７５歳以上人口　女": "47", "８５歳以上人口　総数": "22", "８５歳以上人口　男": "8", "８５歳以上人口　女": "14", "９５歳以上人口　総数": "0", "９５歳以上人口　男": "0", "９５歳以上人口　女": "0", "外国人人口　総数": "3", "外国人人口　男": "2", "外国人人口　女": "1", "世帯総数": 255, "一般世帯数": 255, "１人世帯数　一般世帯数": "49", "２人世帯数　一般世帯数": "99", "３人世帯数　一般世帯数": "34", "４人世帯数　一般世帯数": "49", "５人世帯数　一般世帯数": "21", "６人世帯数　一般世帯数": "2", "７人以上世帯数　一般世帯数": "1", "親族のみの世帯数　一般世帯数": "204", "核家族世帯数　一般世帯数": "183", "核家族以外の世帯数　一般世帯数": "21", "６歳未満世帯員のいる世帯数　一般世帯数": "22", "６５歳以上世帯員のいる世帯数　一般世帯数": "131", "世帯主の年齢が２０〜２９歳の１人世帯数　一般世帯数": "4", "高齢単身世帯数　一般世帯数": "19", "高齢夫婦世帯数　一般世帯数": "65", "index_right": 880 }, "geometry": { "type": "Polygon", "coordinates": [ [ [ 139.40625, 35.37083333333333 ], [ 139.4, 35.37083333333333 ], [ 139.4, 35.375 ], [ 139.40625, 35.375 ], [ 139.40625, 35.37083333333333 ] ] ] } },
{ "type": "Feature", "properties": { "KEY_CODE": "533903444", "MESH1_ID": "5339", "MESH2_ID": "03", "MESH3_ID": "44", "MESH4_ID": "4", "OBJ_ID": 1380, "Unnamed: 1": 0, "Unnamed: 2": null, "Unnamed: 3": null, "人口（総数）": 2260, "人口（総数）　男": 1047, "人口（総数）　女": 1213, "０〜１４歳人口　総数": "232", "０〜１４歳人口　男": "103", "０〜１４歳人口　女": "129", "１５歳以上人口　総数": "2018", "１５歳以上人口　男": "938", "１５歳以上人口　女": "1080", "１５〜６４歳人口　総数": "1004", "１５〜６４歳人口　男": "478", "１５〜６４歳人口　女": "526", "１８歳以上人口　総数": "1967", "１８歳以上人口　男": "917", "１８歳以上人口　女": "1050", "２０歳以上人口　総数": "1924", "２０歳以上人口　男": "892", "２０歳以上人口　女": "1032", "６５歳以上人口　総数": "1014", "６５歳以上人口　男": "460", "６５歳以上人口　女": "554", "７５歳以上人口　総数": "557", "７５歳以上人口　男": "276", "７５歳以上人口　女": "281", "８５歳以上人口　総数": "107", "８５歳以上人口　男": "48", "８５歳以上人口　女": "59", "９５歳以上人口　総数": "6", "９５歳以上人口　男": "0", "９５歳以上人口　女": "6", "外国人人口　総数": "11", "外国人人口　男": "7", "外国人人口　女": "4", "世帯総数": 960, "一般世帯数": 959, "１人世帯数　一般世帯数": "233", "２人世帯数　一般世帯数": "390", "３人世帯数　一般世帯数": "176", "４人世帯数　一般世帯数": "119", "５人世帯数　一般世帯数": "30", "６人世帯数　一般世帯数": "10", "７人以上世帯数　一般世帯数": "1", "親族のみの世帯数　一般世帯数": "723", "核家族世帯数　一般世帯数": "673", "核家族以外の世帯数　一般世帯数": "50", "６歳未満世帯員のいる世帯数　一般世帯数": "51", "６５歳以上世帯員のいる世帯数　一般世帯数": "615", "世帯主の年齢が２０〜２９歳の１人世帯数　一般世帯数": "16", "高齢単身世帯数　一般世帯数": "142", "高齢夫婦世帯数　一般世帯数": "258", "index_right": 880 }, "geometry": { "type": "Polygon", "coordinates": [ [ [ 139.4375, 35.37083333333333 ], [ 139.43125, 35.37083333333333 ], [ 139.43125, 35.375 ], [ 139.4375, 35.375 ], [ 139.4375, 35.37083333333333 ] ] ] } },
{ "type": "Feature", "properties": { "KEY_CODE": "533903451", "MESH1_ID": "5339", "MESH2_ID": "03", "MESH3_ID": "45", "MESH4_ID": "1", "OBJ_ID": 1381, "Unnamed: 1": 0, "Unnamed: 2": null, "Unnamed: 3": null, "人口（総数）": 3102, "人口（総数）　男": 1503, "人口（総数）　女": 1599, "０〜１４歳人口　総数": "355", "０〜１４歳人口　男": "170", "０〜１４歳人口　女": "185", "１５歳以上人口　総数": "2738", "１５歳以上人口　男": "1328", "１５歳以上人口　女": "1410", "１５〜６４歳人口　総数": "1643", "１５〜６４歳人口　男": "800", "１５〜６４歳人口　女": "843", "１８歳以上人口　総数": "2642", "１８歳以上人口　男": "1283", "１８歳以上人口　女": "1359", "２０歳以上人口　総数": "2586", "２０歳以上人口　男": "1258", "２０歳以上人口　女": "1328", "６５歳以上人口　総数": "1095", "６５歳以上人口　男": "528", "６５歳以上人口　女": "567", "７５歳以上人口　総数": "441", "７５歳以上人口　男": "237", "７５歳以上人口　女": "204", "８５歳以上人口　総数": "60", "８５歳以上人口　男": "35", "８５歳以上人口　女": "25", "９５歳以上人口　総数": "2", "９５歳以上人口　男": "1", "９５歳以上人口　女": "1", "外国人人口　総数": "14", "外国人人口　男": "11", "外国人人口　女": "3", "世帯総数": 1234, "一般世帯数": 1234, "１人世帯数　一般世帯数": "229", "２人世帯数　一般世帯数": "479", "３人世帯数　一般世帯数": "271", "４人世帯数　一般世帯数": "188", "５人世帯数　一般世帯数": "54", "６人世帯数　一般世帯数": "11", "７人以上世帯数　一般世帯数": "2", "親族のみの世帯数　一般世帯数": "996", "核家族世帯数　一般世帯数": "957", "核家族以外の世帯数　一般世帯数": "39", "６歳未満世帯員のいる世帯数　一般世帯数": "89", "６５歳以上世帯員のいる世帯数　一般世帯数": "675", "世帯主の年齢が２０〜２９歳の１人世帯数　一般世帯数": "12", "高齢単身世帯数　一般世帯数": "129", "高齢夫婦世帯数　一般世帯数": "306", "index_right": 880 }, "geometry": { "type": "Polygon", "coordinates": [ [ [ 139.44375, 35.366666666666667 ], [ 139.4375, 35.366666666666667 ], [ 139.4375, 35.37083333333333 ], [ 139.44375, 35.37083333333333 ], [ 139.44375, 35.366666666666667 ] ] ] } },
{ "type": "Feature", "properties": { "KEY_CODE": "533903542", "MESH1_ID": "5339", "MESH2_ID": "03", "MESH3_ID": "54", "MESH4_ID": "2", "OBJ_ID": 1418, "Unnamed: 1": 0, "Unnamed: 2": null, "Unnamed: 3": null, "人口（総数）": 840, "人口（総数）　男": 401, "人口（総数）　女": 439, "０〜１４歳人口　総数": "99", "０〜１４歳人口　男": "58", "０〜１４歳人口　女": "41", "１５歳以上人口　総数": "741", "１５歳以上人口　男": "343", "１５歳以上人口　女": "398", "１５〜６４歳人口　総数": "496", "１５〜６４歳人口　男": "240", "１５〜６４歳人口　女": "256", "１８歳以上人口　総数": "706", "１８歳以上人口　男": "326", "１８歳以上人口　女": "380", "２０歳以上人口　総数": "689", "２０歳以上人口　男": "319", "２０歳以上人口　女": "370", "６５歳以上人口　総数": "245", "６５歳以上人口　男": "103", "６５歳以上人口　女": "142", "７５歳以上人口　総数": "108", "７５歳以上人口　男": "45", "７５歳以上人口　女": "63", "８５歳以上人口　総数": "21", "８５歳以上人口　男": "7", "８５歳以上人口　女": "14", "９５歳以上人口　総数": "1", "９５歳以上人口　男": "0", "９５歳以上人口　女": "1", "外国人人口　総数": "3", "外国人人口　男": "1", "外国人人口　女": "2", "世帯総数": 351, "一般世帯数": 351, "１人世帯数　一般世帯数": "91", "２人世帯数　一般世帯数": "117", "３人世帯数　一般世帯数": "76", "４人世帯数　一般世帯数": "53", "５人世帯数　一般世帯数": "10", "６人世帯数　一般世帯数": "3", "７人以上世帯数　一般世帯数": "1", "親族のみの世帯数　一般世帯数": "258", "核家族世帯数　一般世帯数": "239", "核家族以外の世帯数　一般世帯数": "19", "６歳未満世帯員のいる世帯数　一般世帯数": "21", "６５歳以上世帯員のいる世帯数　一般世帯数": "160", "世帯主の年齢が２０〜２９歳の１人世帯数　一般世帯数": "5", "高齢単身世帯数　一般世帯数": "41", "高齢夫婦世帯数　一般世帯数": "50", "index_right": 880 }, "geometry": { "type": "Polygon", "coordinates": [ [ [ 139.4375, 35.375 ], [ 139.43125, 35.375 ], [ 139.43125, 35.379166666666663 ], [ 139.4375, 35.379166666666663 ], [ 139.4375, 35.375 ] ] ] } }
]
}
